{
"type": "FeatureCollection",
"name": "20mesh",
"crs": { "type": "name", "properties": { "name": "urn:ogc:def:crs:OGC:1.3:CRS84" } },
"features": [
{ "type": "Feature", "properties": { "id": 1, "left": 15276866.874920152, "top": 4495833.2290567337, "right": 15279383.141580563, "bottom": 4495833.2290567337 }, "geometry": { "type": "LineString", "coordinates": [ [ 137.234430072, 37.405879909000014 ], [ 137.257034079999698, 37.405879909000014 ] ] } },
{ "type": "Feature", "properties": { "id": 2, "left": 15276866.874920152, "top": 4495813.2290567337, "right": 15279383.141580563, "bottom": 4495813.2290567337 }, "geometry": { "type": "LineString", "coordinates": [ [ 137.234430072, 37.405737193104329 ], [ 137.257034079999698, 37.405737193104329 ] ] } },
{ "type": "Feature", "properties": { "id": 3, "left": 15276866.874920152, "top": 4495793.2290567337, "right": 15279383.141580563, "bottom": 4495793.2290567337 }, "geometry": { "type": "LineString", "coordinates": [ [ 137.234430072, 37.405594476936827 ], [ 137.257034079999698, 37.405594476936827 ] ] } },
{ "type": "Feature", "properties": { "id": 4, "left": 15276866.874920152, "top": 4495773.2290567337, "right": 15279383.141580563, "bottom": 4495773.2290567337 }, "geometry": { "type": "LineString", "coordinates": [ [ 137.234430072, 37.405451760497456 ], [ 137.257034079999698, 37.405451760497456 ] ] } },
{ "type": "Feature", "properties": { "id": 5, "left": 15276866.874920152, "top": 4495753.2290567337, "right": 15279383.141580563, "bottom": 4495753.2290567337 }, "geometry": { "type": "LineString", "coordinates": [ [ 137.234430072, 37.405309043786254 ], [ 137.257034079999698, 37.405309043786254 ] ] } },
{ "type": "Feature", "properties": { "id": 6, "left": 15276866.874920152, "top": 4495733.2290567337, "right": 15279383.141580563, "bottom": 4495733.2290567337 }, "geometry": { "type": "LineString", "coordinates": [ [ 137.234430072, 37.405166326803204 ], [ 137.257034079999698, 37.405166326803204 ] ] } },
{ "type": "Feature", "properties": { "id": 7, "left": 15276866.874920152, "top": 4495713.2290567337, "right": 15279383.141580563, "bottom": 4495713.2290567337 }, "geometry": { "type": "LineString", "coordinates": [ [ 137.234430072, 37.405023609548309 ], [ 137.257034079999698, 37.405023609548309 ] ] } },
{ "type": "Feature", "properties": { "id": 8, "left": 15276866.874920152, "top": 4495693.2290567337, "right": 15279383.141580563, "bottom": 4495693.2290567337 }, "geometry": { "type": "LineString", "coordinates": [ [ 137.234430072, 37.404880892021566 ], [ 137.257034079999698, 37.404880892021566 ] ] } },
{ "type": "Feature", "properties": { "id": 9, "left": 15276866.874920152, "top": 4495673.2290567337, "right": 15279383.141580563, "bottom": 4495673.2290567337 }, "geometry": { "type": "LineString", "coordinates": [ [ 137.234430072, 37.404738174222985 ], [ 137.257034079999698, 37.404738174222985 ] ] } },
{ "type": "Feature", "properties": { "id": 10, "left": 15276866.874920152, "top": 4495653.2290567337, "right": 15279383.141580563, "bottom": 4495653.2290567337 }, "geometry": { "type": "LineString", "coordinates": [ [ 137.234430072, 37.404595456152556 ], [ 137.257034079999698, 37.404595456152556 ] ] } },
{ "type": "Feature", "properties": { "id": 11, "left": 15276866.874920152, "top": 4495633.2290567337, "right": 15279383.141580563, "bottom": 4495633.2290567337 }, "geometry": { "type": "LineString", "coordinates": [ [ 137.234430072, 37.404452737810281 ], [ 137.257034079999698, 37.404452737810281 ] ] } },
{ "type": "Feature", "properties": { "id": 12, "left": 15276866.874920152, "top": 4495613.2290567337, "right": 15279383.141580563, "bottom": 4495613.2290567337 }, "geometry": { "type": "LineString", "coordinates": [ [ 137.234430072, 37.404310019196167 ], [ 137.257034079999698, 37.404310019196167 ] ] } },
{ "type": "Feature", "properties": { "id": 13, "left": 15276866.874920152, "top": 4495593.2290567337, "right": 15279383.141580563, "bottom": 4495593.2290567337 }, "geometry": { "type": "LineString", "coordinates": [ [ 137.234430072, 37.404167300310206 ], [ 137.257034079999698, 37.404167300310206 ] ] } },
{ "type": "Feature", "properties": { "id": 14, "left": 15276866.874920152, "top": 4495573.2290567337, "right": 15279383.141580563, "bottom": 4495573.2290567337 }, "geometry": { "type": "LineString", "coordinates": [ [ 137.234430072, 37.404024581152413 ], [ 137.257034079999698, 37.404024581152413 ] ] } },
{ "type": "Feature", "properties": { "id": 15, "left": 15276866.874920152, "top": 4495553.2290567337, "right": 15279383.141580563, "bottom": 4495553.2290567337 }, "geometry": { "type": "LineString", "coordinates": [ [ 137.234430072, 37.403881861722773 ], [ 137.257034079999698, 37.403881861722773 ] ] } },
{ "type": "Feature", "properties": { "id": 16, "left": 15276866.874920152, "top": 4495533.2290567337, "right": 15279383.141580563, "bottom": 4495533.2290567337 }, "geometry": { "type": "LineString", "coordinates": [ [ 137.234430072, 37.403739142021287 ], [ 137.257034079999698, 37.403739142021287 ] ] } },
{ "type": "Feature", "properties": { "id": 17, "left": 15276866.874920152, "top": 4495513.2290567337, "right": 15279383.141580563, "bottom": 4495513.2290567337 }, "geometry": { "type": "LineString", "coordinates": [ [ 137.234430072, 37.403596422047961 ], [ 137.257034079999698, 37.403596422047961 ] ] } },
{ "type": "Feature", "properties": { "id": 18, "left": 15276866.874920152, "top": 4495493.2290567337, "right": 15279383.141580563, "bottom": 4495493.2290567337 }, "geometry": { "type": "LineString", "coordinates": [ [ 137.234430072, 37.403453701802803 ], [ 137.257034079999698, 37.403453701802803 ] ] } },
{ "type": "Feature", "properties": { "id": 19, "left": 15276866.874920152, "top": 4495473.2290567337, "right": 15279383.141580563, "bottom": 4495473.2290567337 }, "geometry": { "type": "LineString", "coordinates": [ [ 137.234430072, 37.403310981285799 ], [ 137.257034079999698, 37.403310981285799 ] ] } },
{ "type": "Feature", "properties": { "id": 20, "left": 15276866.874920152, "top": 4495453.2290567337, "right": 15279383.141580563, "bottom": 4495453.2290567337 }, "geometry": { "type": "LineString", "coordinates": [ [ 137.234430072, 37.403168260496948 ], [ 137.257034079999698, 37.403168260496948 ] ] } },
{ "type": "Feature", "properties": { "id": 21, "left": 15276866.874920152, "top": 4495433.2290567337, "right": 15279383.141580563, "bottom": 4495433.2290567337 }, "geometry": { "type": "LineString", "coordinates": [ [ 137.234430072, 37.403025539436264 ], [ 137.257034079999698, 37.403025539436264 ] ] } },
{ "type": "Feature", "properties": { "id": 22, "left": 15276866.874920152, "top": 4495413.2290567337, "right": 15279383.141580563, "bottom": 4495413.2290567337 }, "geometry": { "type": "LineString", "coordinates": [ [ 137.234430072, 37.402882818103741 ], [ 137.257034079999698, 37.402882818103741 ] ] } },
{ "type": "Feature", "properties": { "id": 23, "left": 15276866.874920152, "top": 4495393.2290567337, "right": 15279383.141580563, "bottom": 4495393.2290567337 }, "geometry": { "type": "LineString", "coordinates": [ [ 137.234430072, 37.402740096499379 ], [ 137.257034079999698, 37.402740096499379 ] ] } },
{ "type": "Feature", "properties": { "id": 24, "left": 15276866.874920152, "top": 4495373.2290567337, "right": 15279383.141580563, "bottom": 4495373.2290567337 }, "geometry": { "type": "LineString", "coordinates": [ [ 137.234430072, 37.402597374623177 ], [ 137.257034079999698, 37.402597374623177 ] ] } },
{ "type": "Feature", "properties": { "id": 25, "left": 15276866.874920152, "top": 4495353.2290567337, "right": 15279383.141580563, "bottom": 4495353.2290567337 }, "geometry": { "type": "LineString", "coordinates": [ [ 137.234430072, 37.402454652475143 ], [ 137.257034079999698, 37.402454652475143 ] ] } },
{ "type": "Feature", "properties": { "id": 26, "left": 15276866.874920152, "top": 4495333.2290567337, "right": 15279383.141580563, "bottom": 4495333.2290567337 }, "geometry": { "type": "LineString", "coordinates": [ [ 137.234430072, 37.402311930055262 ], [ 137.257034079999698, 37.402311930055262 ] ] } },
{ "type": "Feature", "properties": { "id": 27, "left": 15276866.874920152, "top": 4495313.2290567337, "right": 15279383.141580563, "bottom": 4495313.2290567337 }, "geometry": { "type": "LineString", "coordinates": [ [ 137.234430072, 37.402169207363549 ], [ 137.257034079999698, 37.402169207363549 ] ] } },
{ "type": "Feature", "properties": { "id": 28, "left": 15276866.874920152, "top": 4495293.2290567337, "right": 15279383.141580563, "bottom": 4495293.2290567337 }, "geometry": { "type": "LineString", "coordinates": [ [ 137.234430072, 37.402026484400004 ], [ 137.257034079999698, 37.402026484400004 ] ] } },
{ "type": "Feature", "properties": { "id": 29, "left": 15276866.874920152, "top": 4495273.2290567337, "right": 15279383.141580563, "bottom": 4495273.2290567337 }, "geometry": { "type": "LineString", "coordinates": [ [ 137.234430072, 37.401883761164612 ], [ 137.257034079999698, 37.401883761164612 ] ] } },
{ "type": "Feature", "properties": { "id": 30, "left": 15276866.874920152, "top": 4495253.2290567337, "right": 15279383.141580563, "bottom": 4495253.2290567337 }, "geometry": { "type": "LineString", "coordinates": [ [ 137.234430072, 37.401741037657395 ], [ 137.257034079999698, 37.401741037657395 ] ] } },
{ "type": "Feature", "properties": { "id": 31, "left": 15276866.874920152, "top": 4495233.2290567337, "right": 15279383.141580563, "bottom": 4495233.2290567337 }, "geometry": { "type": "LineString", "coordinates": [ [ 137.234430072, 37.401598313878331 ], [ 137.257034079999698, 37.401598313878331 ] ] } },
{ "type": "Feature", "properties": { "id": 32, "left": 15276866.874920152, "top": 4495213.2290567337, "right": 15279383.141580563, "bottom": 4495213.2290567337 }, "geometry": { "type": "LineString", "coordinates": [ [ 137.234430072, 37.401455589827435 ], [ 137.257034079999698, 37.401455589827435 ] ] } },
{ "type": "Feature", "properties": { "id": 33, "left": 15276866.874920152, "top": 4495193.2290567337, "right": 15279383.141580563, "bottom": 4495193.2290567337 }, "geometry": { "type": "LineString", "coordinates": [ [ 137.234430072, 37.4013128655047 ], [ 137.257034079999698, 37.4013128655047 ] ] } },
{ "type": "Feature", "properties": { "id": 34, "left": 15276866.874920152, "top": 4495173.2290567337, "right": 15279383.141580563, "bottom": 4495173.2290567337 }, "geometry": { "type": "LineString", "coordinates": [ [ 137.234430072, 37.401170140910132 ], [ 137.257034079999698, 37.401170140910132 ] ] } },
{ "type": "Feature", "properties": { "id": 35, "left": 15276866.874920152, "top": 4495153.2290567337, "right": 15279383.141580563, "bottom": 4495153.2290567337 }, "geometry": { "type": "LineString", "coordinates": [ [ 137.234430072, 37.401027416043732 ], [ 137.257034079999698, 37.401027416043732 ] ] } },
{ "type": "Feature", "properties": { "id": 36, "left": 15276866.874920152, "top": 4495133.2290567337, "right": 15279383.141580563, "bottom": 4495133.2290567337 }, "geometry": { "type": "LineString", "coordinates": [ [ 137.234430072, 37.400884690905507 ], [ 137.257034079999698, 37.400884690905507 ] ] } },
{ "type": "Feature", "properties": { "id": 37, "left": 15276866.874920152, "top": 4495113.2290567337, "right": 15279383.141580563, "bottom": 4495113.2290567337 }, "geometry": { "type": "LineString", "coordinates": [ [ 137.234430072, 37.400741965495435 ], [ 137.257034079999698, 37.400741965495435 ] ] } },
{ "type": "Feature", "properties": { "id": 38, "left": 15276866.874920152, "top": 4495093.2290567337, "right": 15279383.141580563, "bottom": 4495093.2290567337 }, "geometry": { "type": "LineString", "coordinates": [ [ 137.234430072, 37.400599239813538 ], [ 137.257034079999698, 37.400599239813538 ] ] } },
{ "type": "Feature", "properties": { "id": 39, "left": 15276866.874920152, "top": 4495073.2290567337, "right": 15279383.141580563, "bottom": 4495073.2290567337 }, "geometry": { "type": "LineString", "coordinates": [ [ 137.234430072, 37.400456513859801 ], [ 137.257034079999698, 37.400456513859801 ] ] } },
{ "type": "Feature", "properties": { "id": 40, "left": 15276866.874920152, "top": 4495053.2290567337, "right": 15279383.141580563, "bottom": 4495053.2290567337 }, "geometry": { "type": "LineString", "coordinates": [ [ 137.234430072, 37.400313787634232 ], [ 137.257034079999698, 37.400313787634232 ] ] } },
{ "type": "Feature", "properties": { "id": 41, "left": 15276866.874920152, "top": 4495033.2290567337, "right": 15279383.141580563, "bottom": 4495033.2290567337 }, "geometry": { "type": "LineString", "coordinates": [ [ 137.234430072, 37.400171061136845 ], [ 137.257034079999698, 37.400171061136845 ] ] } },
{ "type": "Feature", "properties": { "id": 42, "left": 15276866.874920152, "top": 4495013.2290567337, "right": 15279383.141580563, "bottom": 4495013.2290567337 }, "geometry": { "type": "LineString", "coordinates": [ [ 137.234430072, 37.400028334367605 ], [ 137.257034079999698, 37.400028334367605 ] ] } },
{ "type": "Feature", "properties": { "id": 43, "left": 15276866.874920152, "top": 4494993.2290567337, "right": 15279383.141580563, "bottom": 4494993.2290567337 }, "geometry": { "type": "LineString", "coordinates": [ [ 137.234430072, 37.399885607326539 ], [ 137.257034079999698, 37.399885607326539 ] ] } },
{ "type": "Feature", "properties": { "id": 44, "left": 15276866.874920152, "top": 4494973.2290567337, "right": 15279383.141580563, "bottom": 4494973.2290567337 }, "geometry": { "type": "LineString", "coordinates": [ [ 137.234430072, 37.399742880013655 ], [ 137.257034079999698, 37.399742880013655 ] ] } },
{ "type": "Feature", "properties": { "id": 45, "left": 15276866.874920152, "top": 4494953.2290567337, "right": 15279383.141580563, "bottom": 4494953.2290567337 }, "geometry": { "type": "LineString", "coordinates": [ [ 137.234430072, 37.399600152428917 ], [ 137.257034079999698, 37.399600152428917 ] ] } },
{ "type": "Feature", "properties": { "id": 46, "left": 15276866.874920152, "top": 4494933.2290567337, "right": 15279383.141580563, "bottom": 4494933.2290567337 }, "geometry": { "type": "LineString", "coordinates": [ [ 137.234430072, 37.399457424572361 ], [ 137.257034079999698, 37.399457424572361 ] ] } },
{ "type": "Feature", "properties": { "id": 47, "left": 15276866.874920152, "top": 4494913.2290567337, "right": 15279383.141580563, "bottom": 4494913.2290567337 }, "geometry": { "type": "LineString", "coordinates": [ [ 137.234430072, 37.399314696443987 ], [ 137.257034079999698, 37.399314696443987 ] ] } },
{ "type": "Feature", "properties": { "id": 48, "left": 15276866.874920152, "top": 4494893.2290567337, "right": 15279383.141580563, "bottom": 4494893.2290567337 }, "geometry": { "type": "LineString", "coordinates": [ [ 137.234430072, 37.399171968043767 ], [ 137.257034079999698, 37.399171968043767 ] ] } },
{ "type": "Feature", "properties": { "id": 49, "left": 15276866.874920152, "top": 4494873.2290567337, "right": 15279383.141580563, "bottom": 4494873.2290567337 }, "geometry": { "type": "LineString", "coordinates": [ [ 137.234430072, 37.399029239371728 ], [ 137.257034079999698, 37.399029239371728 ] ] } },
{ "type": "Feature", "properties": { "id": 50, "left": 15276866.874920152, "top": 4494853.2290567337, "right": 15279383.141580563, "bottom": 4494853.2290567337 }, "geometry": { "type": "LineString", "coordinates": [ [ 137.234430072, 37.398886510427857 ], [ 137.257034079999698, 37.398886510427857 ] ] } },
{ "type": "Feature", "properties": { "id": 51, "left": 15276866.874920152, "top": 4494833.2290567337, "right": 15279383.141580563, "bottom": 4494833.2290567337 }, "geometry": { "type": "LineString", "coordinates": [ [ 137.234430072, 37.398743781212154 ], [ 137.257034079999698, 37.398743781212154 ] ] } },
{ "type": "Feature", "properties": { "id": 52, "left": 15276866.874920152, "top": 4494813.2290567337, "right": 15279383.141580563, "bottom": 4494813.2290567337 }, "geometry": { "type": "LineString", "coordinates": [ [ 137.234430072, 37.398601051724626 ], [ 137.257034079999698, 37.398601051724626 ] ] } },
{ "type": "Feature", "properties": { "id": 53, "left": 15276866.874920152, "top": 4494793.2290567337, "right": 15279383.141580563, "bottom": 4494793.2290567337 }, "geometry": { "type": "LineString", "coordinates": [ [ 137.234430072, 37.398458321965272 ], [ 137.257034079999698, 37.398458321965272 ] ] } },
{ "type": "Feature", "properties": { "id": 54, "left": 15276866.874920152, "top": 4494773.2290567337, "right": 15279383.141580563, "bottom": 4494773.2290567337 }, "geometry": { "type": "LineString", "coordinates": [ [ 137.234430072, 37.398315591934079 ], [ 137.257034079999698, 37.398315591934079 ] ] } },
{ "type": "Feature", "properties": { "id": 55, "left": 15276866.874920152, "top": 4494753.2290567337, "right": 15279383.141580563, "bottom": 4494753.2290567337 }, "geometry": { "type": "LineString", "coordinates": [ [ 137.234430072, 37.398172861631075 ], [ 137.257034079999698, 37.398172861631075 ] ] } },
{ "type": "Feature", "properties": { "id": 56, "left": 15276866.874920152, "top": 4494733.2290567337, "right": 15279383.141580563, "bottom": 4494733.2290567337 }, "geometry": { "type": "LineString", "coordinates": [ [ 137.234430072, 37.398030131056231 ], [ 137.257034079999698, 37.398030131056231 ] ] } },
{ "type": "Feature", "properties": { "id": 57, "left": 15276866.874920152, "top": 4494713.2290567337, "right": 15279383.141580563, "bottom": 4494713.2290567337 }, "geometry": { "type": "LineString", "coordinates": [ [ 137.234430072, 37.397887400209562 ], [ 137.257034079999698, 37.397887400209562 ] ] } },
{ "type": "Feature", "properties": { "id": 58, "left": 15276866.874920152, "top": 4494693.2290567337, "right": 15279383.141580563, "bottom": 4494693.2290567337 }, "geometry": { "type": "LineString", "coordinates": [ [ 137.234430072, 37.397744669091075 ], [ 137.257034079999698, 37.397744669091075 ] ] } },
{ "type": "Feature", "properties": { "id": 59, "left": 15276866.874920152, "top": 4494673.2290567337, "right": 15279383.141580563, "bottom": 4494673.2290567337 }, "geometry": { "type": "LineString", "coordinates": [ [ 137.234430072, 37.397601937700763 ], [ 137.257034079999698, 37.397601937700763 ] ] } },
{ "type": "Feature", "properties": { "id": 60, "left": 15276866.874920152, "top": 4494653.2290567337, "right": 15279383.141580563, "bottom": 4494653.2290567337 }, "geometry": { "type": "LineString", "coordinates": [ [ 137.234430072, 37.397459206038619 ], [ 137.257034079999698, 37.397459206038619 ] ] } },
{ "type": "Feature", "properties": { "id": 61, "left": 15276866.874920152, "top": 4494633.2290567337, "right": 15279383.141580563, "bottom": 4494633.2290567337 }, "geometry": { "type": "LineString", "coordinates": [ [ 137.234430072, 37.397316474104656 ], [ 137.257034079999698, 37.397316474104656 ] ] } },
{ "type": "Feature", "properties": { "id": 62, "left": 15276866.874920152, "top": 4494613.2290567337, "right": 15279383.141580563, "bottom": 4494613.2290567337 }, "geometry": { "type": "LineString", "coordinates": [ [ 137.234430072, 37.397173741898861 ], [ 137.257034079999698, 37.397173741898861 ] ] } },
{ "type": "Feature", "properties": { "id": 63, "left": 15276866.874920152, "top": 4494593.2290567337, "right": 15279383.141580563, "bottom": 4494593.2290567337 }, "geometry": { "type": "LineString", "coordinates": [ [ 137.234430072, 37.397031009421248 ], [ 137.257034079999698, 37.397031009421248 ] ] } },
{ "type": "Feature", "properties": { "id": 64, "left": 15276866.874920152, "top": 4494573.2290567337, "right": 15279383.141580563, "bottom": 4494573.2290567337 }, "geometry": { "type": "LineString", "coordinates": [ [ 137.234430072, 37.39688827667181 ], [ 137.257034079999698, 37.39688827667181 ] ] } },
{ "type": "Feature", "properties": { "id": 65, "left": 15276866.874920152, "top": 4494553.2290567337, "right": 15279383.141580563, "bottom": 4494553.2290567337 }, "geometry": { "type": "LineString", "coordinates": [ [ 137.234430072, 37.396745543650546 ], [ 137.257034079999698, 37.396745543650546 ] ] } },
{ "type": "Feature", "properties": { "id": 66, "left": 15276866.874920152, "top": 4494533.2290567337, "right": 15279383.141580563, "bottom": 4494533.2290567337 }, "geometry": { "type": "LineString", "coordinates": [ [ 137.234430072, 37.396602810357457 ], [ 137.257034079999698, 37.396602810357457 ] ] } },
{ "type": "Feature", "properties": { "id": 67, "left": 15276866.874920152, "top": 4494513.2290567337, "right": 15279383.141580563, "bottom": 4494513.2290567337 }, "geometry": { "type": "LineString", "coordinates": [ [ 137.234430072, 37.39646007679255 ], [ 137.257034079999698, 37.39646007679255 ] ] } },
{ "type": "Feature", "properties": { "id": 68, "left": 15276866.874920152, "top": 4494493.2290567337, "right": 15279383.141580563, "bottom": 4494493.2290567337 }, "geometry": { "type": "LineString", "coordinates": [ [ 137.234430072, 37.396317342955818 ], [ 137.257034079999698, 37.396317342955818 ] ] } },
{ "type": "Feature", "properties": { "id": 69, "left": 15276866.874920152, "top": 4494473.2290567337, "right": 15279383.141580563, "bottom": 4494473.2290567337 }, "geometry": { "type": "LineString", "coordinates": [ [ 137.234430072, 37.396174608847268 ], [ 137.257034079999698, 37.396174608847268 ] ] } },
{ "type": "Feature", "properties": { "id": 70, "left": 15276866.874920152, "top": 4494453.2290567337, "right": 15279383.141580563, "bottom": 4494453.2290567337 }, "geometry": { "type": "LineString", "coordinates": [ [ 137.234430072, 37.396031874466892 ], [ 137.257034079999698, 37.396031874466892 ] ] } },
{ "type": "Feature", "properties": { "id": 71, "left": 15276866.874920152, "top": 4494433.2290567337, "right": 15279383.141580563, "bottom": 4494433.2290567337 }, "geometry": { "type": "LineString", "coordinates": [ [ 137.234430072, 37.395889139814706 ], [ 137.257034079999698, 37.395889139814706 ] ] } },
{ "type": "Feature", "properties": { "id": 72, "left": 15276866.874920152, "top": 4494413.2290567337, "right": 15279383.141580563, "bottom": 4494413.2290567337 }, "geometry": { "type": "LineString", "coordinates": [ [ 137.234430072, 37.395746404890687 ], [ 137.257034079999698, 37.395746404890687 ] ] } },
{ "type": "Feature", "properties": { "id": 73, "left": 15276866.874920152, "top": 4494393.2290567337, "right": 15279383.141580563, "bottom": 4494393.2290567337 }, "geometry": { "type": "LineString", "coordinates": [ [ 137.234430072, 37.39560366969485 ], [ 137.257034079999698, 37.39560366969485 ] ] } },
{ "type": "Feature", "properties": { "id": 74, "left": 15276866.874920152, "top": 4494373.2290567337, "right": 15279383.141580563, "bottom": 4494373.2290567337 }, "geometry": { "type": "LineString", "coordinates": [ [ 137.234430072, 37.395460934227188 ], [ 137.257034079999698, 37.395460934227188 ] ] } },
{ "type": "Feature", "properties": { "id": 75, "left": 15276866.874920152, "top": 4494353.2290567337, "right": 15279383.141580563, "bottom": 4494353.2290567337 }, "geometry": { "type": "LineString", "coordinates": [ [ 137.234430072, 37.395318198487715 ], [ 137.257034079999698, 37.395318198487715 ] ] } },
{ "type": "Feature", "properties": { "id": 76, "left": 15276866.874920152, "top": 4494333.2290567337, "right": 15279383.141580563, "bottom": 4494333.2290567337 }, "geometry": { "type": "LineString", "coordinates": [ [ 137.234430072, 37.395175462476416 ], [ 137.257034079999698, 37.395175462476416 ] ] } },
{ "type": "Feature", "properties": { "id": 77, "left": 15276866.874920152, "top": 4494313.2290567337, "right": 15279383.141580563, "bottom": 4494313.2290567337 }, "geometry": { "type": "LineString", "coordinates": [ [ 137.234430072, 37.395032726193307 ], [ 137.257034079999698, 37.395032726193307 ] ] } },
{ "type": "Feature", "properties": { "id": 78, "left": 15276866.874920152, "top": 4494293.2290567337, "right": 15279383.141580563, "bottom": 4494293.2290567337 }, "geometry": { "type": "LineString", "coordinates": [ [ 137.234430072, 37.394889989638372 ], [ 137.257034079999698, 37.394889989638372 ] ] } },
{ "type": "Feature", "properties": { "id": 79, "left": 15276866.874920152, "top": 4494273.2290567337, "right": 15279383.141580563, "bottom": 4494273.2290567337 }, "geometry": { "type": "LineString", "coordinates": [ [ 137.234430072, 37.394747252811626 ], [ 137.257034079999698, 37.394747252811626 ] ] } },
{ "type": "Feature", "properties": { "id": 80, "left": 15276866.874920152, "top": 4494253.2290567337, "right": 15279383.141580563, "bottom": 4494253.2290567337 }, "geometry": { "type": "LineString", "coordinates": [ [ 137.234430072, 37.394604515713048 ], [ 137.257034079999698, 37.394604515713048 ] ] } },
{ "type": "Feature", "properties": { "id": 81, "left": 15276866.874920152, "top": 4494233.2290567337, "right": 15279383.141580563, "bottom": 4494233.2290567337 }, "geometry": { "type": "LineString", "coordinates": [ [ 137.234430072, 37.394461778342666 ], [ 137.257034079999698, 37.394461778342666 ] ] } },
{ "type": "Feature", "properties": { "id": 82, "left": 15276866.874920152, "top": 4494213.2290567337, "right": 15279383.141580563, "bottom": 4494213.2290567337 }, "geometry": { "type": "LineString", "coordinates": [ [ 137.234430072, 37.394319040700466 ], [ 137.257034079999698, 37.394319040700466 ] ] } },
{ "type": "Feature", "properties": { "id": 83, "left": 15276866.874920152, "top": 4494193.2290567337, "right": 15279383.141580563, "bottom": 4494193.2290567337 }, "geometry": { "type": "LineString", "coordinates": [ [ 137.234430072, 37.394176302786441 ], [ 137.257034079999698, 37.394176302786441 ] ] } },
{ "type": "Feature", "properties": { "id": 84, "left": 15276866.874920152, "top": 4494173.2290567337, "right": 15279383.141580563, "bottom": 4494173.2290567337 }, "geometry": { "type": "LineString", "coordinates": [ [ 137.234430072, 37.394033564600598 ], [ 137.257034079999698, 37.394033564600598 ] ] } },
{ "type": "Feature", "properties": { "id": 85, "left": 15276866.874920152, "top": 4494153.2290567337, "right": 15279383.141580563, "bottom": 4494153.2290567337 }, "geometry": { "type": "LineString", "coordinates": [ [ 137.234430072, 37.39389082614295 ], [ 137.257034079999698, 37.39389082614295 ] ] } },
{ "type": "Feature", "properties": { "id": 86, "left": 15276866.874920152, "top": 4494133.2290567337, "right": 15279383.141580563, "bottom": 4494133.2290567337 }, "geometry": { "type": "LineString", "coordinates": [ [ 137.234430072, 37.393748087413485 ], [ 137.257034079999698, 37.393748087413485 ] ] } },
{ "type": "Feature", "properties": { "id": 87, "left": 15276866.874920152, "top": 4494113.2290567337, "right": 15279383.141580563, "bottom": 4494113.2290567337 }, "geometry": { "type": "LineString", "coordinates": [ [ 137.234430072, 37.393605348412194 ], [ 137.257034079999698, 37.393605348412194 ] ] } },
{ "type": "Feature", "properties": { "id": 88, "left": 15276866.874920152, "top": 4494093.2290567337, "right": 15279383.141580563, "bottom": 4494093.2290567337 }, "geometry": { "type": "LineString", "coordinates": [ [ 137.234430072, 37.3934626091391 ], [ 137.257034079999698, 37.3934626091391 ] ] } },
{ "type": "Feature", "properties": { "id": 89, "left": 15276866.874920152, "top": 4494073.2290567337, "right": 15279383.141580563, "bottom": 4494073.2290567337 }, "geometry": { "type": "LineString", "coordinates": [ [ 137.234430072, 37.39331986959418 ], [ 137.257034079999698, 37.39331986959418 ] ] } },
{ "type": "Feature", "properties": { "id": 90, "left": 15276866.874920152, "top": 4494053.2290567337, "right": 15279383.141580563, "bottom": 4494053.2290567337 }, "geometry": { "type": "LineString", "coordinates": [ [ 137.234430072, 37.393177129777449 ], [ 137.257034079999698, 37.393177129777449 ] ] } },
{ "type": "Feature", "properties": { "id": 91, "left": 15276866.874920152, "top": 4494033.2290567337, "right": 15279383.141580563, "bottom": 4494033.2290567337 }, "geometry": { "type": "LineString", "coordinates": [ [ 137.234430072, 37.393034389688914 ], [ 137.257034079999698, 37.393034389688914 ] ] } },
{ "type": "Feature", "properties": { "id": 92, "left": 15276866.874920152, "top": 4494013.2290567337, "right": 15279383.141580563, "bottom": 4494013.2290567337 }, "geometry": { "type": "LineString", "coordinates": [ [ 137.234430072, 37.392891649328554 ], [ 137.257034079999698, 37.392891649328554 ] ] } },
{ "type": "Feature", "properties": { "id": 93, "left": 15276866.874920152, "top": 4493993.2290567337, "right": 15279383.141580563, "bottom": 4493993.2290567337 }, "geometry": { "type": "LineString", "coordinates": [ [ 137.234430072, 37.39274890869639 ], [ 137.257034079999698, 37.39274890869639 ] ] } },
{ "type": "Feature", "properties": { "id": 94, "left": 15276866.874920152, "top": 4493973.2290567337, "right": 15279383.141580563, "bottom": 4493973.2290567337 }, "geometry": { "type": "LineString", "coordinates": [ [ 137.234430072, 37.392606167792401 ], [ 137.257034079999698, 37.392606167792401 ] ] } },
{ "type": "Feature", "properties": { "id": 95, "left": 15276866.874920152, "top": 4493953.2290567337, "right": 15279383.141580563, "bottom": 4493953.2290567337 }, "geometry": { "type": "LineString", "coordinates": [ [ 137.234430072, 37.392463426616615 ], [ 137.257034079999698, 37.392463426616615 ] ] } },
{ "type": "Feature", "properties": { "id": 96, "left": 15276866.874920152, "top": 4495833.2290567337, "right": 15276866.874920152, "bottom": 4493937.0762658454 }, "geometry": { "type": "LineString", "coordinates": [ [ 137.234430072, 37.405879909000014 ], [ 137.234430072, 37.392348143000014 ] ] } },
{ "type": "Feature", "properties": { "id": 97, "left": 15276886.874920152, "top": 4495833.2290567337, "right": 15276886.874920152, "bottom": 4493937.0762658454 }, "geometry": { "type": "LineString", "coordinates": [ [ 137.234609735056836, 37.405879909000014 ], [ 137.234609735056836, 37.392348143000014 ] ] } },
{ "type": "Feature", "properties": { "id": 98, "left": 15276906.874920152, "top": 4495833.2290567337, "right": 15276906.874920152, "bottom": 4493937.0762658454 }, "geometry": { "type": "LineString", "coordinates": [ [ 137.234789398113662, 37.405879909000014 ], [ 137.234789398113662, 37.392348143000014 ] ] } },
{ "type": "Feature", "properties": { "id": 99, "left": 15276926.874920152, "top": 4495833.2290567337, "right": 15276926.874920152, "bottom": 4493937.0762658454 }, "geometry": { "type": "LineString", "coordinates": [ [ 137.234969061170489, 37.405879909000014 ], [ 137.234969061170489, 37.392348143000014 ] ] } },
{ "type": "Feature", "properties": { "id": 100, "left": 15276946.874920152, "top": 4495833.2290567337, "right": 15276946.874920152, "bottom": 4493937.0762658454 }, "geometry": { "type": "LineString", "coordinates": [ [ 137.235148724227287, 37.405879909000014 ], [ 137.235148724227287, 37.392348143000014 ] ] } },
{ "type": "Feature", "properties": { "id": 101, "left": 15276966.874920152, "top": 4495833.2290567337, "right": 15276966.874920152, "bottom": 4493937.0762658454 }, "geometry": { "type": "LineString", "coordinates": [ [ 137.235328387284142, 37.405879909000014 ], [ 137.235328387284142, 37.392348143000014 ] ] } },
{ "type": "Feature", "properties": { "id": 102, "left": 15276986.874920152, "top": 4495833.2290567337, "right": 15276986.874920152, "bottom": 4493937.0762658454 }, "geometry": { "type": "LineString", "coordinates": [ [ 137.235508050340968, 37.405879909000014 ], [ 137.235508050340968, 37.392348143000014 ] ] } },
{ "type": "Feature", "properties": { "id": 103, "left": 15277006.874920152, "top": 4495833.2290567337, "right": 15277006.874920152, "bottom": 4493937.0762658454 }, "geometry": { "type": "LineString", "coordinates": [ [ 137.235687713397795, 37.405879909000014 ], [ 137.235687713397795, 37.392348143000014 ] ] } },
{ "type": "Feature", "properties": { "id": 104, "left": 15277026.874920152, "top": 4495833.2290567337, "right": 15277026.874920152, "bottom": 4493937.0762658454 }, "geometry": { "type": "LineString", "coordinates": [ [ 137.235867376454593, 37.405879909000014 ], [ 137.235867376454593, 37.392348143000014 ] ] } },
{ "type": "Feature", "properties": { "id": 105, "left": 15277046.874920152, "top": 4495833.2290567337, "right": 15277046.874920152, "bottom": 4493937.0762658454 }, "geometry": { "type": "LineString", "coordinates": [ [ 137.236047039511419, 37.405879909000014 ], [ 137.236047039511419, 37.392348143000014 ] ] } },
{ "type": "Feature", "properties": { "id": 106, "left": 15277066.874920152, "top": 4495833.2290567337, "right": 15277066.874920152, "bottom": 4493937.0762658454 }, "geometry": { "type": "LineString", "coordinates": [ [ 137.236226702568246, 37.405879909000014 ], [ 137.236226702568246, 37.392348143000014 ] ] } },
{ "type": "Feature", "properties": { "id": 107, "left": 15277086.874920152, "top": 4495833.2290567337, "right": 15277086.874920152, "bottom": 4493937.0762658454 }, "geometry": { "type": "LineString", "coordinates": [ [ 137.236406365625072, 37.405879909000014 ], [ 137.236406365625072, 37.392348143000014 ] ] } },
{ "type": "Feature", "properties": { "id": 108, "left": 15277106.874920152, "top": 4495833.2290567337, "right": 15277106.874920152, "bottom": 4493937.0762658454 }, "geometry": { "type": "LineString", "coordinates": [ [ 137.236586028681899, 37.405879909000014 ], [ 137.236586028681899, 37.392348143000014 ] ] } },
{ "type": "Feature", "properties": { "id": 109, "left": 15277126.874920152, "top": 4495833.2290567337, "right": 15277126.874920152, "bottom": 4493937.0762658454 }, "geometry": { "type": "LineString", "coordinates": [ [ 137.236765691738725, 37.405879909000014 ], [ 137.236765691738725, 37.392348143000014 ] ] } },
{ "type": "Feature", "properties": { "id": 110, "left": 15277146.874920152, "top": 4495833.2290567337, "right": 15277146.874920152, "bottom": 4493937.0762658454 }, "geometry": { "type": "LineString", "coordinates": [ [ 137.236945354795552, 37.405879909000014 ], [ 137.236945354795552, 37.392348143000014 ] ] } },
{ "type": "Feature", "properties": { "id": 111, "left": 15277166.874920152, "top": 4495833.2290567337, "right": 15277166.874920152, "bottom": 4493937.0762658454 }, "geometry": { "type": "LineString", "coordinates": [ [ 137.237125017852378, 37.405879909000014 ], [ 137.237125017852378, 37.392348143000014 ] ] } },
{ "type": "Feature", "properties": { "id": 112, "left": 15277186.874920152, "top": 4495833.2290567337, "right": 15277186.874920152, "bottom": 4493937.0762658454 }, "geometry": { "type": "LineString", "coordinates": [ [ 137.237304680909176, 37.405879909000014 ], [ 137.237304680909176, 37.392348143000014 ] ] } },
{ "type": "Feature", "properties": { "id": 113, "left": 15277206.874920152, "top": 4495833.2290567337, "right": 15277206.874920152, "bottom": 4493937.0762658454 }, "geometry": { "type": "LineString", "coordinates": [ [ 137.237484343966003, 37.405879909000014 ], [ 137.237484343966003, 37.392348143000014 ] ] } },
{ "type": "Feature", "properties": { "id": 114, "left": 15277226.874920152, "top": 4495833.2290567337, "right": 15277226.874920152, "bottom": 4493937.0762658454 }, "geometry": { "type": "LineString", "coordinates": [ [ 137.237664007022858, 37.405879909000014 ], [ 137.237664007022858, 37.392348143000014 ] ] } },
{ "type": "Feature", "properties": { "id": 115, "left": 15277246.874920152, "top": 4495833.2290567337, "right": 15277246.874920152, "bottom": 4493937.0762658454 }, "geometry": { "type": "LineString", "coordinates": [ [ 137.237843670079684, 37.405879909000014 ], [ 137.237843670079684, 37.392348143000014 ] ] } },
{ "type": "Feature", "properties": { "id": 116, "left": 15277266.874920152, "top": 4495833.2290567337, "right": 15277266.874920152, "bottom": 4493937.0762658454 }, "geometry": { "type": "LineString", "coordinates": [ [ 137.238023333136482, 37.405879909000014 ], [ 137.238023333136482, 37.392348143000014 ] ] } },
{ "type": "Feature", "properties": { "id": 117, "left": 15277286.874920152, "top": 4495833.2290567337, "right": 15277286.874920152, "bottom": 4493937.0762658454 }, "geometry": { "type": "LineString", "coordinates": [ [ 137.238202996193309, 37.405879909000014 ], [ 137.238202996193309, 37.392348143000014 ] ] } },
{ "type": "Feature", "properties": { "id": 118, "left": 15277306.874920152, "top": 4495833.2290567337, "right": 15277306.874920152, "bottom": 4493937.0762658454 }, "geometry": { "type": "LineString", "coordinates": [ [ 137.238382659250135, 37.405879909000014 ], [ 137.238382659250135, 37.392348143000014 ] ] } },
{ "type": "Feature", "properties": { "id": 119, "left": 15277326.874920152, "top": 4495833.2290567337, "right": 15277326.874920152, "bottom": 4493937.0762658454 }, "geometry": { "type": "LineString", "coordinates": [ [ 137.238562322306962, 37.405879909000014 ], [ 137.238562322306962, 37.392348143000014 ] ] } },
{ "type": "Feature", "properties": { "id": 120, "left": 15277346.874920152, "top": 4495833.2290567337, "right": 15277346.874920152, "bottom": 4493937.0762658454 }, "geometry": { "type": "LineString", "coordinates": [ [ 137.238741985363788, 37.405879909000014 ], [ 137.238741985363788, 37.392348143000014 ] ] } },
{ "type": "Feature", "properties": { "id": 121, "left": 15277366.874920152, "top": 4495833.2290567337, "right": 15277366.874920152, "bottom": 4493937.0762658454 }, "geometry": { "type": "LineString", "coordinates": [ [ 137.238921648420614, 37.405879909000014 ], [ 137.238921648420614, 37.392348143000014 ] ] } },
{ "type": "Feature", "properties": { "id": 122, "left": 15277386.874920152, "top": 4495833.2290567337, "right": 15277386.874920152, "bottom": 4493937.0762658454 }, "geometry": { "type": "LineString", "coordinates": [ [ 137.239101311477441, 37.405879909000014 ], [ 137.239101311477441, 37.392348143000014 ] ] } },
{ "type": "Feature", "properties": { "id": 123, "left": 15277406.874920152, "top": 4495833.2290567337, "right": 15277406.874920152, "bottom": 4493937.0762658454 }, "geometry": { "type": "LineString", "coordinates": [ [ 137.239280974534267, 37.405879909000014 ], [ 137.239280974534267, 37.392348143000014 ] ] } },
{ "type": "Feature", "properties": { "id": 124, "left": 15277426.874920152, "top": 4495833.2290567337, "right": 15277426.874920152, "bottom": 4493937.0762658454 }, "geometry": { "type": "LineString", "coordinates": [ [ 137.239460637591066, 37.405879909000014 ], [ 137.239460637591066, 37.392348143000014 ] ] } },
{ "type": "Feature", "properties": { "id": 125, "left": 15277446.874920152, "top": 4495833.2290567337, "right": 15277446.874920152, "bottom": 4493937.0762658454 }, "geometry": { "type": "LineString", "coordinates": [ [ 137.239640300647892, 37.405879909000014 ], [ 137.239640300647892, 37.392348143000014 ] ] } },
{ "type": "Feature", "properties": { "id": 126, "left": 15277466.874920152, "top": 4495833.2290567337, "right": 15277466.874920152, "bottom": 4493937.0762658454 }, "geometry": { "type": "LineString", "coordinates": [ [ 137.239819963704747, 37.405879909000014 ], [ 137.239819963704747, 37.392348143000014 ] ] } },
{ "type": "Feature", "properties": { "id": 127, "left": 15277486.874920152, "top": 4495833.2290567337, "right": 15277486.874920152, "bottom": 4493937.0762658454 }, "geometry": { "type": "LineString", "coordinates": [ [ 137.239999626761573, 37.405879909000014 ], [ 137.239999626761573, 37.392348143000014 ] ] } },
{ "type": "Feature", "properties": { "id": 128, "left": 15277506.874920152, "top": 4495833.2290567337, "right": 15277506.874920152, "bottom": 4493937.0762658454 }, "geometry": { "type": "LineString", "coordinates": [ [ 137.240179289818371, 37.405879909000014 ], [ 137.240179289818371, 37.392348143000014 ] ] } },
{ "type": "Feature", "properties": { "id": 129, "left": 15277526.874920152, "top": 4495833.2290567337, "right": 15277526.874920152, "bottom": 4493937.0762658454 }, "geometry": { "type": "LineString", "coordinates": [ [ 137.240358952875198, 37.405879909000014 ], [ 137.240358952875198, 37.392348143000014 ] ] } },
{ "type": "Feature", "properties": { "id": 130, "left": 15277546.874920152, "top": 4495833.2290567337, "right": 15277546.874920152, "bottom": 4493937.0762658454 }, "geometry": { "type": "LineString", "coordinates": [ [ 137.240538615932024, 37.405879909000014 ], [ 137.240538615932024, 37.392348143000014 ] ] } },
{ "type": "Feature", "properties": { "id": 131, "left": 15277566.874920152, "top": 4495833.2290567337, "right": 15277566.874920152, "bottom": 4493937.0762658454 }, "geometry": { "type": "LineString", "coordinates": [ [ 137.240718278988851, 37.405879909000014 ], [ 137.240718278988851, 37.392348143000014 ] ] } },
{ "type": "Feature", "properties": { "id": 132, "left": 15277586.874920152, "top": 4495833.2290567337, "right": 15277586.874920152, "bottom": 4493937.0762658454 }, "geometry": { "type": "LineString", "coordinates": [ [ 137.240897942045677, 37.405879909000014 ], [ 137.240897942045677, 37.392348143000014 ] ] } },
{ "type": "Feature", "properties": { "id": 133, "left": 15277606.874920152, "top": 4495833.2290567337, "right": 15277606.874920152, "bottom": 4493937.0762658454 }, "geometry": { "type": "LineString", "coordinates": [ [ 137.241077605102504, 37.405879909000014 ], [ 137.241077605102504, 37.392348143000014 ] ] } },
{ "type": "Feature", "properties": { "id": 134, "left": 15277626.874920152, "top": 4495833.2290567337, "right": 15277626.874920152, "bottom": 4493937.0762658454 }, "geometry": { "type": "LineString", "coordinates": [ [ 137.24125726815933, 37.405879909000014 ], [ 137.24125726815933, 37.392348143000014 ] ] } },
{ "type": "Feature", "properties": { "id": 135, "left": 15277646.874920152, "top": 4495833.2290567337, "right": 15277646.874920152, "bottom": 4493937.0762658454 }, "geometry": { "type": "LineString", "coordinates": [ [ 137.241436931216157, 37.405879909000014 ], [ 137.241436931216157, 37.392348143000014 ] ] } },
{ "type": "Feature", "properties": { "id": 136, "left": 15277666.874920152, "top": 4495833.2290567337, "right": 15277666.874920152, "bottom": 4493937.0762658454 }, "geometry": { "type": "LineString", "coordinates": [ [ 137.241616594272955, 37.405879909000014 ], [ 137.241616594272955, 37.392348143000014 ] ] } },
{ "type": "Feature", "properties": { "id": 137, "left": 15277686.874920152, "top": 4495833.2290567337, "right": 15277686.874920152, "bottom": 4493937.0762658454 }, "geometry": { "type": "LineString", "coordinates": [ [ 137.241796257329781, 37.405879909000014 ], [ 137.241796257329781, 37.392348143000014 ] ] } },
{ "type": "Feature", "properties": { "id": 138, "left": 15277706.874920152, "top": 4495833.2290567337, "right": 15277706.874920152, "bottom": 4493937.0762658454 }, "geometry": { "type": "LineString", "coordinates": [ [ 137.241975920386608, 37.405879909000014 ], [ 137.241975920386608, 37.392348143000014 ] ] } },
{ "type": "Feature", "properties": { "id": 139, "left": 15277726.874920152, "top": 4495833.2290567337, "right": 15277726.874920152, "bottom": 4493937.0762658454 }, "geometry": { "type": "LineString", "coordinates": [ [ 137.242155583443463, 37.405879909000014 ], [ 137.242155583443463, 37.392348143000014 ] ] } },
{ "type": "Feature", "properties": { "id": 140, "left": 15277746.874920152, "top": 4495833.2290567337, "right": 15277746.874920152, "bottom": 4493937.0762658454 }, "geometry": { "type": "LineString", "coordinates": [ [ 137.242335246500261, 37.405879909000014 ], [ 137.242335246500261, 37.392348143000014 ] ] } },
{ "type": "Feature", "properties": { "id": 141, "left": 15277766.874920152, "top": 4495833.2290567337, "right": 15277766.874920152, "bottom": 4493937.0762658454 }, "geometry": { "type": "LineString", "coordinates": [ [ 137.242514909557087, 37.405879909000014 ], [ 137.242514909557087, 37.392348143000014 ] ] } },
{ "type": "Feature", "properties": { "id": 142, "left": 15277786.874920152, "top": 4495833.2290567337, "right": 15277786.874920152, "bottom": 4493937.0762658454 }, "geometry": { "type": "LineString", "coordinates": [ [ 137.242694572613914, 37.405879909000014 ], [ 137.242694572613914, 37.392348143000014 ] ] } },
{ "type": "Feature", "properties": { "id": 143, "left": 15277806.874920152, "top": 4495833.2290567337, "right": 15277806.874920152, "bottom": 4493937.0762658454 }, "geometry": { "type": "LineString", "coordinates": [ [ 137.24287423567074, 37.405879909000014 ], [ 137.24287423567074, 37.392348143000014 ] ] } },
{ "type": "Feature", "properties": { "id": 144, "left": 15277826.874920152, "top": 4495833.2290567337, "right": 15277826.874920152, "bottom": 4493937.0762658454 }, "geometry": { "type": "LineString", "coordinates": [ [ 137.243053898727567, 37.405879909000014 ], [ 137.243053898727567, 37.392348143000014 ] ] } },
{ "type": "Feature", "properties": { "id": 145, "left": 15277846.874920152, "top": 4495833.2290567337, "right": 15277846.874920152, "bottom": 4493937.0762658454 }, "geometry": { "type": "LineString", "coordinates": [ [ 137.243233561784393, 37.405879909000014 ], [ 137.243233561784393, 37.392348143000014 ] ] } },
{ "type": "Feature", "properties": { "id": 146, "left": 15277866.874920152, "top": 4495833.2290567337, "right": 15277866.874920152, "bottom": 4493937.0762658454 }, "geometry": { "type": "LineString", "coordinates": [ [ 137.24341322484122, 37.405879909000014 ], [ 137.24341322484122, 37.392348143000014 ] ] } },
{ "type": "Feature", "properties": { "id": 147, "left": 15277886.874920152, "top": 4495833.2290567337, "right": 15277886.874920152, "bottom": 4493937.0762658454 }, "geometry": { "type": "LineString", "coordinates": [ [ 137.243592887898046, 37.405879909000014 ], [ 137.243592887898046, 37.392348143000014 ] ] } },
{ "type": "Feature", "properties": { "id": 148, "left": 15277906.874920152, "top": 4495833.2290567337, "right": 15277906.874920152, "bottom": 4493937.0762658454 }, "geometry": { "type": "LineString", "coordinates": [ [ 137.243772550954844, 37.405879909000014 ], [ 137.243772550954844, 37.392348143000014 ] ] } },
{ "type": "Feature", "properties": { "id": 149, "left": 15277926.874920152, "top": 4495833.2290567337, "right": 15277926.874920152, "bottom": 4493937.0762658454 }, "geometry": { "type": "LineString", "coordinates": [ [ 137.243952214011671, 37.405879909000014 ], [ 137.243952214011671, 37.392348143000014 ] ] } },
{ "type": "Feature", "properties": { "id": 150, "left": 15277946.874920152, "top": 4495833.2290567337, "right": 15277946.874920152, "bottom": 4493937.0762658454 }, "geometry": { "type": "LineString", "coordinates": [ [ 137.244131877068497, 37.405879909000014 ], [ 137.244131877068497, 37.392348143000014 ] ] } },
{ "type": "Feature", "properties": { "id": 151, "left": 15277966.874920152, "top": 4495833.2290567337, "right": 15277966.874920152, "bottom": 4493937.0762658454 }, "geometry": { "type": "LineString", "coordinates": [ [ 137.244311540125324, 37.405879909000014 ], [ 137.244311540125324, 37.392348143000014 ] ] } },
{ "type": "Feature", "properties": { "id": 152, "left": 15277986.874920152, "top": 4495833.2290567337, "right": 15277986.874920152, "bottom": 4493937.0762658454 }, "geometry": { "type": "LineString", "coordinates": [ [ 137.24449120318215, 37.405879909000014 ], [ 137.24449120318215, 37.392348143000014 ] ] } },
{ "type": "Feature", "properties": { "id": 153, "left": 15278006.874920152, "top": 4495833.2290567337, "right": 15278006.874920152, "bottom": 4493937.0762658454 }, "geometry": { "type": "LineString", "coordinates": [ [ 137.244670866238977, 37.405879909000014 ], [ 137.244670866238977, 37.392348143000014 ] ] } },
{ "type": "Feature", "properties": { "id": 154, "left": 15278026.874920152, "top": 4495833.2290567337, "right": 15278026.874920152, "bottom": 4493937.0762658454 }, "geometry": { "type": "LineString", "coordinates": [ [ 137.244850529295803, 37.405879909000014 ], [ 137.244850529295803, 37.392348143000014 ] ] } },
{ "type": "Feature", "properties": { "id": 155, "left": 15278046.874920152, "top": 4495833.2290567337, "right": 15278046.874920152, "bottom": 4493937.0762658454 }, "geometry": { "type": "LineString", "coordinates": [ [ 137.24503019235263, 37.405879909000014 ], [ 137.24503019235263, 37.392348143000014 ] ] } },
{ "type": "Feature", "properties": { "id": 156, "left": 15278066.874920152, "top": 4495833.2290567337, "right": 15278066.874920152, "bottom": 4493937.0762658454 }, "geometry": { "type": "LineString", "coordinates": [ [ 137.245209855409456, 37.405879909000014 ], [ 137.245209855409456, 37.392348143000014 ] ] } },
{ "type": "Feature", "properties": { "id": 157, "left": 15278086.874920152, "top": 4495833.2290567337, "right": 15278086.874920152, "bottom": 4493937.0762658454 }, "geometry": { "type": "LineString", "coordinates": [ [ 137.245389518466254, 37.405879909000014 ], [ 137.245389518466254, 37.392348143000014 ] ] } },
{ "type": "Feature", "properties": { "id": 158, "left": 15278106.874920152, "top": 4495833.2290567337, "right": 15278106.874920152, "bottom": 4493937.0762658454 }, "geometry": { "type": "LineString", "coordinates": [ [ 137.245569181523109, 37.405879909000014 ], [ 137.245569181523109, 37.392348143000014 ] ] } },
{ "type": "Feature", "properties": { "id": 159, "left": 15278126.874920152, "top": 4495833.2290567337, "right": 15278126.874920152, "bottom": 4493937.0762658454 }, "geometry": { "type": "LineString", "coordinates": [ [ 137.245748844579936, 37.405879909000014 ], [ 137.245748844579936, 37.392348143000014 ] ] } },
{ "type": "Feature", "properties": { "id": 160, "left": 15278146.874920152, "top": 4495833.2290567337, "right": 15278146.874920152, "bottom": 4493937.0762658454 }, "geometry": { "type": "LineString", "coordinates": [ [ 137.245928507636734, 37.405879909000014 ], [ 137.245928507636734, 37.392348143000014 ] ] } },
{ "type": "Feature", "properties": { "id": 161, "left": 15278166.874920152, "top": 4495833.2290567337, "right": 15278166.874920152, "bottom": 4493937.0762658454 }, "geometry": { "type": "LineString", "coordinates": [ [ 137.24610817069356, 37.405879909000014 ], [ 137.24610817069356, 37.392348143000014 ] ] } },
{ "type": "Feature", "properties": { "id": 162, "left": 15278186.874920152, "top": 4495833.2290567337, "right": 15278186.874920152, "bottom": 4493937.0762658454 }, "geometry": { "type": "LineString", "coordinates": [ [ 137.246287833750387, 37.405879909000014 ], [ 137.246287833750387, 37.392348143000014 ] ] } },
{ "type": "Feature", "properties": { "id": 163, "left": 15278206.874920152, "top": 4495833.2290567337, "right": 15278206.874920152, "bottom": 4493937.0762658454 }, "geometry": { "type": "LineString", "coordinates": [ [ 137.246467496807213, 37.405879909000014 ], [ 137.246467496807213, 37.392348143000014 ] ] } },
{ "type": "Feature", "properties": { "id": 164, "left": 15278226.874920152, "top": 4495833.2290567337, "right": 15278226.874920152, "bottom": 4493937.0762658454 }, "geometry": { "type": "LineString", "coordinates": [ [ 137.24664715986404, 37.405879909000014 ], [ 137.24664715986404, 37.392348143000014 ] ] } },
{ "type": "Feature", "properties": { "id": 165, "left": 15278246.874920152, "top": 4495833.2290567337, "right": 15278246.874920152, "bottom": 4493937.0762658454 }, "geometry": { "type": "LineString", "coordinates": [ [ 137.246826822920866, 37.405879909000014 ], [ 137.246826822920866, 37.392348143000014 ] ] } },
{ "type": "Feature", "properties": { "id": 166, "left": 15278266.874920152, "top": 4495833.2290567337, "right": 15278266.874920152, "bottom": 4493937.0762658454 }, "geometry": { "type": "LineString", "coordinates": [ [ 137.247006485977693, 37.405879909000014 ], [ 137.247006485977693, 37.392348143000014 ] ] } },
{ "type": "Feature", "properties": { "id": 167, "left": 15278286.874920152, "top": 4495833.2290567337, "right": 15278286.874920152, "bottom": 4493937.0762658454 }, "geometry": { "type": "LineString", "coordinates": [ [ 137.247186149034519, 37.405879909000014 ], [ 137.247186149034519, 37.392348143000014 ] ] } },
{ "type": "Feature", "properties": { "id": 168, "left": 15278306.874920152, "top": 4495833.2290567337, "right": 15278306.874920152, "bottom": 4493937.0762658454 }, "geometry": { "type": "LineString", "coordinates": [ [ 137.247365812091346, 37.405879909000014 ], [ 137.247365812091346, 37.392348143000014 ] ] } },
{ "type": "Feature", "properties": { "id": 169, "left": 15278326.874920152, "top": 4495833.2290567337, "right": 15278326.874920152, "bottom": 4493937.0762658454 }, "geometry": { "type": "LineString", "coordinates": [ [ 137.247545475148144, 37.405879909000014 ], [ 137.247545475148144, 37.392348143000014 ] ] } },
{ "type": "Feature", "properties": { "id": 170, "left": 15278346.874920152, "top": 4495833.2290567337, "right": 15278346.874920152, "bottom": 4493937.0762658454 }, "geometry": { "type": "LineString", "coordinates": [ [ 137.24772513820497, 37.405879909000014 ], [ 137.24772513820497, 37.392348143000014 ] ] } },
{ "type": "Feature", "properties": { "id": 171, "left": 15278366.874920152, "top": 4495833.2290567337, "right": 15278366.874920152, "bottom": 4493937.0762658454 }, "geometry": { "type": "LineString", "coordinates": [ [ 137.247904801261825, 37.405879909000014 ], [ 137.247904801261825, 37.392348143000014 ] ] } },
{ "type": "Feature", "properties": { "id": 172, "left": 15278386.874920152, "top": 4495833.2290567337, "right": 15278386.874920152, "bottom": 4493937.0762658454 }, "geometry": { "type": "LineString", "coordinates": [ [ 137.248084464318623, 37.405879909000014 ], [ 137.248084464318623, 37.392348143000014 ] ] } },
{ "type": "Feature", "properties": { "id": 173, "left": 15278406.874920152, "top": 4495833.2290567337, "right": 15278406.874920152, "bottom": 4493937.0762658454 }, "geometry": { "type": "LineString", "coordinates": [ [ 137.24826412737545, 37.405879909000014 ], [ 137.24826412737545, 37.392348143000014 ] ] } },
{ "type": "Feature", "properties": { "id": 174, "left": 15278426.874920152, "top": 4495833.2290567337, "right": 15278426.874920152, "bottom": 4493937.0762658454 }, "geometry": { "type": "LineString", "coordinates": [ [ 137.248443790432276, 37.405879909000014 ], [ 137.248443790432276, 37.392348143000014 ] ] } },
{ "type": "Feature", "properties": { "id": 175, "left": 15278446.874920152, "top": 4495833.2290567337, "right": 15278446.874920152, "bottom": 4493937.0762658454 }, "geometry": { "type": "LineString", "coordinates": [ [ 137.248623453489103, 37.405879909000014 ], [ 137.248623453489103, 37.392348143000014 ] ] } },
{ "type": "Feature", "properties": { "id": 176, "left": 15278466.874920152, "top": 4495833.2290567337, "right": 15278466.874920152, "bottom": 4493937.0762658454 }, "geometry": { "type": "LineString", "coordinates": [ [ 137.248803116545929, 37.405879909000014 ], [ 137.248803116545929, 37.392348143000014 ] ] } },
{ "type": "Feature", "properties": { "id": 177, "left": 15278486.874920152, "top": 4495833.2290567337, "right": 15278486.874920152, "bottom": 4493937.0762658454 }, "geometry": { "type": "LineString", "coordinates": [ [ 137.248982779602755, 37.405879909000014 ], [ 137.248982779602755, 37.392348143000014 ] ] } },
{ "type": "Feature", "properties": { "id": 178, "left": 15278506.874920152, "top": 4495833.2290567337, "right": 15278506.874920152, "bottom": 4493937.0762658454 }, "geometry": { "type": "LineString", "coordinates": [ [ 137.249162442659582, 37.405879909000014 ], [ 137.249162442659582, 37.392348143000014 ] ] } },
{ "type": "Feature", "properties": { "id": 179, "left": 15278526.874920152, "top": 4495833.2290567337, "right": 15278526.874920152, "bottom": 4493937.0762658454 }, "geometry": { "type": "LineString", "coordinates": [ [ 137.249342105716408, 37.405879909000014 ], [ 137.249342105716408, 37.392348143000014 ] ] } },
{ "type": "Feature", "properties": { "id": 180, "left": 15278546.874920152, "top": 4495833.2290567337, "right": 15278546.874920152, "bottom": 4493937.0762658454 }, "geometry": { "type": "LineString", "coordinates": [ [ 137.249521768773235, 37.405879909000014 ], [ 137.249521768773235, 37.392348143000014 ] ] } },
{ "type": "Feature", "properties": { "id": 181, "left": 15278566.874920152, "top": 4495833.2290567337, "right": 15278566.874920152, "bottom": 4493937.0762658454 }, "geometry": { "type": "LineString", "coordinates": [ [ 137.249701431830033, 37.405879909000014 ], [ 137.249701431830033, 37.392348143000014 ] ] } },
{ "type": "Feature", "properties": { "id": 182, "left": 15278586.874920152, "top": 4495833.2290567337, "right": 15278586.874920152, "bottom": 4493937.0762658454 }, "geometry": { "type": "LineString", "coordinates": [ [ 137.24988109488686, 37.405879909000014 ], [ 137.24988109488686, 37.392348143000014 ] ] } },
{ "type": "Feature", "properties": { "id": 183, "left": 15278606.874920152, "top": 4495833.2290567337, "right": 15278606.874920152, "bottom": 4493937.0762658454 }, "geometry": { "type": "LineString", "coordinates": [ [ 137.250060757943714, 37.405879909000014 ], [ 137.250060757943714, 37.392348143000014 ] ] } },
{ "type": "Feature", "properties": { "id": 184, "left": 15278626.874920152, "top": 4495833.2290567337, "right": 15278626.874920152, "bottom": 4493937.0762658454 }, "geometry": { "type": "LineString", "coordinates": [ [ 137.250240421000512, 37.405879909000014 ], [ 137.250240421000512, 37.392348143000014 ] ] } },
{ "type": "Feature", "properties": { "id": 185, "left": 15278646.874920152, "top": 4495833.2290567337, "right": 15278646.874920152, "bottom": 4493937.0762658454 }, "geometry": { "type": "LineString", "coordinates": [ [ 137.250420084057339, 37.405879909000014 ], [ 137.250420084057339, 37.392348143000014 ] ] } },
{ "type": "Feature", "properties": { "id": 186, "left": 15278666.874920152, "top": 4495833.2290567337, "right": 15278666.874920152, "bottom": 4493937.0762658454 }, "geometry": { "type": "LineString", "coordinates": [ [ 137.250599747114165, 37.405879909000014 ], [ 137.250599747114165, 37.392348143000014 ] ] } },
{ "type": "Feature", "properties": { "id": 187, "left": 15278686.874920152, "top": 4495833.2290567337, "right": 15278686.874920152, "bottom": 4493937.0762658454 }, "geometry": { "type": "LineString", "coordinates": [ [ 137.250779410170992, 37.405879909000014 ], [ 137.250779410170992, 37.392348143000014 ] ] } },
{ "type": "Feature", "properties": { "id": 188, "left": 15278706.874920152, "top": 4495833.2290567337, "right": 15278706.874920152, "bottom": 4493937.0762658454 }, "geometry": { "type": "LineString", "coordinates": [ [ 137.250959073227818, 37.405879909000014 ], [ 137.250959073227818, 37.392348143000014 ] ] } },
{ "type": "Feature", "properties": { "id": 189, "left": 15278726.874920152, "top": 4495833.2290567337, "right": 15278726.874920152, "bottom": 4493937.0762658454 }, "geometry": { "type": "LineString", "coordinates": [ [ 137.251138736284616, 37.405879909000014 ], [ 137.251138736284616, 37.392348143000014 ] ] } },
{ "type": "Feature", "properties": { "id": 190, "left": 15278746.874920152, "top": 4495833.2290567337, "right": 15278746.874920152, "bottom": 4493937.0762658454 }, "geometry": { "type": "LineString", "coordinates": [ [ 137.251318399341471, 37.405879909000014 ], [ 137.251318399341471, 37.392348143000014 ] ] } },
{ "type": "Feature", "properties": { "id": 191, "left": 15278766.874920152, "top": 4495833.2290567337, "right": 15278766.874920152, "bottom": 4493937.0762658454 }, "geometry": { "type": "LineString", "coordinates": [ [ 137.251498062398298, 37.405879909000014 ], [ 137.251498062398298, 37.392348143000014 ] ] } },
{ "type": "Feature", "properties": { "id": 192, "left": 15278786.874920152, "top": 4495833.2290567337, "right": 15278786.874920152, "bottom": 4493937.0762658454 }, "geometry": { "type": "LineString", "coordinates": [ [ 137.251677725455124, 37.405879909000014 ], [ 137.251677725455124, 37.392348143000014 ] ] } },
{ "type": "Feature", "properties": { "id": 193, "left": 15278806.874920152, "top": 4495833.2290567337, "right": 15278806.874920152, "bottom": 4493937.0762658454 }, "geometry": { "type": "LineString", "coordinates": [ [ 137.251857388511922, 37.405879909000014 ], [ 137.251857388511922, 37.392348143000014 ] ] } },
{ "type": "Feature", "properties": { "id": 194, "left": 15278826.874920152, "top": 4495833.2290567337, "right": 15278826.874920152, "bottom": 4493937.0762658454 }, "geometry": { "type": "LineString", "coordinates": [ [ 137.252037051568749, 37.405879909000014 ], [ 137.252037051568749, 37.392348143000014 ] ] } },
{ "type": "Feature", "properties": { "id": 195, "left": 15278846.874920152, "top": 4495833.2290567337, "right": 15278846.874920152, "bottom": 4493937.0762658454 }, "geometry": { "type": "LineString", "coordinates": [ [ 137.252216714625575, 37.405879909000014 ], [ 137.252216714625575, 37.392348143000014 ] ] } },
{ "type": "Feature", "properties": { "id": 196, "left": 15278866.874920152, "top": 4495833.2290567337, "right": 15278866.874920152, "bottom": 4493937.0762658454 }, "geometry": { "type": "LineString", "coordinates": [ [ 137.252396377682402, 37.405879909000014 ], [ 137.252396377682402, 37.392348143000014 ] ] } },
{ "type": "Feature", "properties": { "id": 197, "left": 15278886.874920152, "top": 4495833.2290567337, "right": 15278886.874920152, "bottom": 4493937.0762658454 }, "geometry": { "type": "LineString", "coordinates": [ [ 137.252576040739228, 37.405879909000014 ], [ 137.252576040739228, 37.392348143000014 ] ] } },
{ "type": "Feature", "properties": { "id": 198, "left": 15278906.874920152, "top": 4495833.2290567337, "right": 15278906.874920152, "bottom": 4493937.0762658454 }, "geometry": { "type": "LineString", "coordinates": [ [ 137.252755703796055, 37.405879909000014 ], [ 137.252755703796055, 37.392348143000014 ] ] } },
{ "type": "Feature", "properties": { "id": 199, "left": 15278926.874920152, "top": 4495833.2290567337, "right": 15278926.874920152, "bottom": 4493937.0762658454 }, "geometry": { "type": "LineString", "coordinates": [ [ 137.252935366852881, 37.405879909000014 ], [ 137.252935366852881, 37.392348143000014 ] ] } },
{ "type": "Feature", "properties": { "id": 200, "left": 15278946.874920152, "top": 4495833.2290567337, "right": 15278946.874920152, "bottom": 4493937.0762658454 }, "geometry": { "type": "LineString", "coordinates": [ [ 137.253115029909708, 37.405879909000014 ], [ 137.253115029909708, 37.392348143000014 ] ] } },
{ "type": "Feature", "properties": { "id": 201, "left": 15278966.874920152, "top": 4495833.2290567337, "right": 15278966.874920152, "bottom": 4493937.0762658454 }, "geometry": { "type": "LineString", "coordinates": [ [ 137.253294692966506, 37.405879909000014 ], [ 137.253294692966506, 37.392348143000014 ] ] } },
{ "type": "Feature", "properties": { "id": 202, "left": 15278986.874920152, "top": 4495833.2290567337, "right": 15278986.874920152, "bottom": 4493937.0762658454 }, "geometry": { "type": "LineString", "coordinates": [ [ 137.253474356023361, 37.405879909000014 ], [ 137.253474356023361, 37.392348143000014 ] ] } },
{ "type": "Feature", "properties": { "id": 203, "left": 15279006.874920152, "top": 4495833.2290567337, "right": 15279006.874920152, "bottom": 4493937.0762658454 }, "geometry": { "type": "LineString", "coordinates": [ [ 137.253654019080187, 37.405879909000014 ], [ 137.253654019080187, 37.392348143000014 ] ] } },
{ "type": "Feature", "properties": { "id": 204, "left": 15279026.874920152, "top": 4495833.2290567337, "right": 15279026.874920152, "bottom": 4493937.0762658454 }, "geometry": { "type": "LineString", "coordinates": [ [ 137.253833682137014, 37.405879909000014 ], [ 137.253833682137014, 37.392348143000014 ] ] } },
{ "type": "Feature", "properties": { "id": 205, "left": 15279046.874920152, "top": 4495833.2290567337, "right": 15279046.874920152, "bottom": 4493937.0762658454 }, "geometry": { "type": "LineString", "coordinates": [ [ 137.254013345193812, 37.405879909000014 ], [ 137.254013345193812, 37.392348143000014 ] ] } },
{ "type": "Feature", "properties": { "id": 206, "left": 15279066.874920152, "top": 4495833.2290567337, "right": 15279066.874920152, "bottom": 4493937.0762658454 }, "geometry": { "type": "LineString", "coordinates": [ [ 137.254193008250638, 37.405879909000014 ], [ 137.254193008250638, 37.392348143000014 ] ] } },
{ "type": "Feature", "properties": { "id": 207, "left": 15279086.874920152, "top": 4495833.2290567337, "right": 15279086.874920152, "bottom": 4493937.0762658454 }, "geometry": { "type": "LineString", "coordinates": [ [ 137.254372671307465, 37.405879909000014 ], [ 137.254372671307465, 37.392348143000014 ] ] } },
{ "type": "Feature", "properties": { "id": 208, "left": 15279106.874920152, "top": 4495833.2290567337, "right": 15279106.874920152, "bottom": 4493937.0762658454 }, "geometry": { "type": "LineString", "coordinates": [ [ 137.254552334364291, 37.405879909000014 ], [ 137.254552334364291, 37.392348143000014 ] ] } },
{ "type": "Feature", "properties": { "id": 209, "left": 15279126.874920152, "top": 4495833.2290567337, "right": 15279126.874920152, "bottom": 4493937.0762658454 }, "geometry": { "type": "LineString", "coordinates": [ [ 137.254731997421118, 37.405879909000014 ], [ 137.254731997421118, 37.392348143000014 ] ] } },
{ "type": "Feature", "properties": { "id": 210, "left": 15279146.874920152, "top": 4495833.2290567337, "right": 15279146.874920152, "bottom": 4493937.0762658454 }, "geometry": { "type": "LineString", "coordinates": [ [ 137.254911660477944, 37.405879909000014 ], [ 137.254911660477944, 37.392348143000014 ] ] } },
{ "type": "Feature", "properties": { "id": 211, "left": 15279166.874920152, "top": 4495833.2290567337, "right": 15279166.874920152, "bottom": 4493937.0762658454 }, "geometry": { "type": "LineString", "coordinates": [ [ 137.255091323534771, 37.405879909000014 ], [ 137.255091323534771, 37.392348143000014 ] ] } },
{ "type": "Feature", "properties": { "id": 212, "left": 15279186.874920152, "top": 4495833.2290567337, "right": 15279186.874920152, "bottom": 4493937.0762658454 }, "geometry": { "type": "LineString", "coordinates": [ [ 137.255270986591597, 37.405879909000014 ], [ 137.255270986591597, 37.392348143000014 ] ] } },
{ "type": "Feature", "properties": { "id": 213, "left": 15279206.874920152, "top": 4495833.2290567337, "right": 15279206.874920152, "bottom": 4493937.0762658454 }, "geometry": { "type": "LineString", "coordinates": [ [ 137.255450649648395, 37.405879909000014 ], [ 137.255450649648395, 37.392348143000014 ] ] } },
{ "type": "Feature", "properties": { "id": 214, "left": 15279226.874920152, "top": 4495833.2290567337, "right": 15279226.874920152, "bottom": 4493937.0762658454 }, "geometry": { "type": "LineString", "coordinates": [ [ 137.255630312705222, 37.405879909000014 ], [ 137.255630312705222, 37.392348143000014 ] ] } },
{ "type": "Feature", "properties": { "id": 215, "left": 15279246.874920152, "top": 4495833.2290567337, "right": 15279246.874920152, "bottom": 4493937.0762658454 }, "geometry": { "type": "LineString", "coordinates": [ [ 137.255809975762077, 37.405879909000014 ], [ 137.255809975762077, 37.392348143000014 ] ] } },
{ "type": "Feature", "properties": { "id": 216, "left": 15279266.874920152, "top": 4495833.2290567337, "right": 15279266.874920152, "bottom": 4493937.0762658454 }, "geometry": { "type": "LineString", "coordinates": [ [ 137.255989638818903, 37.405879909000014 ], [ 137.255989638818903, 37.392348143000014 ] ] } },
{ "type": "Feature", "properties": { "id": 217, "left": 15279286.874920152, "top": 4495833.2290567337, "right": 15279286.874920152, "bottom": 4493937.0762658454 }, "geometry": { "type": "LineString", "coordinates": [ [ 137.256169301875701, 37.405879909000014 ], [ 137.256169301875701, 37.392348143000014 ] ] } },
{ "type": "Feature", "properties": { "id": 218, "left": 15279306.874920152, "top": 4495833.2290567337, "right": 15279306.874920152, "bottom": 4493937.0762658454 }, "geometry": { "type": "LineString", "coordinates": [ [ 137.256348964932528, 37.405879909000014 ], [ 137.256348964932528, 37.392348143000014 ] ] } },
{ "type": "Feature", "properties": { "id": 219, "left": 15279326.874920152, "top": 4495833.2290567337, "right": 15279326.874920152, "bottom": 4493937.0762658454 }, "geometry": { "type": "LineString", "coordinates": [ [ 137.256528627989354, 37.405879909000014 ], [ 137.256528627989354, 37.392348143000014 ] ] } },
{ "type": "Feature", "properties": { "id": 220, "left": 15279346.874920152, "top": 4495833.2290567337, "right": 15279346.874920152, "bottom": 4493937.0762658454 }, "geometry": { "type": "LineString", "coordinates": [ [ 137.256708291046181, 37.405879909000014 ], [ 137.256708291046181, 37.392348143000014 ] ] } },
{ "type": "Feature", "properties": { "id": 221, "left": 15279366.874920152, "top": 4495833.2290567337, "right": 15279366.874920152, "bottom": 4493937.0762658454 }, "geometry": { "type": "LineString", "coordinates": [ [ 137.256887954103007, 37.405879909000014 ], [ 137.256887954103007, 37.392348143000014 ] ] } }
]
}
