{
"type": "FeatureCollection",
"name": "trees",
"crs": { "type": "name", "properties": { "name": "urn:ogc:def:crs:OGC:1.3:CRS84" } },
"features": [
{ "type": "Feature", "properties": { "species": "ﾓﾁﾉｷ", "DBH": 20, "nickname": "背負いのモ", "photo": "\"I:\\mitsuke\\250901Inverstigation\\photo_bigtree\\0.JPG\"", "damage": 0, "ID": 1 }, "geometry": { "type": "Point", "coordinates": [ 137.247304004522192, 37.396005137045833 ] } },
{ "type": "Feature", "properties": { "species": "ﾓﾁﾉｷ", "DBH": 30, "nickname": "背負いのモ", "photo": "\"I:\\mitsuke\\250901Inverstigation\\photo_bigtree\\0.JPG\"", "damage": 0, "ID": 2 }, "geometry": { "type": "Point", "coordinates": [ 137.247312152949064, 37.39601407397975 ] } },
{ "type": "Feature", "properties": { "species": "ﾓﾁﾉｷ", "DBH": 20, "nickname": "移動ブロッ", "photo": "\"I:\\mitsuke\\250901Inverstigation\\photo_bigtree\\0.JPG\"", "damage": 0, "ID": 3 }, "geometry": { "type": "Point", "coordinates": [ 137.247320060394884, 37.396030929670914 ] } },
{ "type": "Feature", "properties": { "species": "不明", "DBH": 0, "nickname": null, "photo": null, "damage": 0, "ID": 4 }, "geometry": { "type": "Point", "coordinates": [ 137.247350867066928, 37.396089180474227 ] } },
{ "type": "Feature", "properties": { "species": "不明", "DBH": 0, "nickname": null, "photo": null, "damage": 0, "ID": 5 }, "geometry": { "type": "Point", "coordinates": [ 137.247409730108672, 37.396053682740529 ] } },
{ "type": "Feature", "properties": { "species": "不明", "DBH": 0, "nickname": null, "photo": null, "damage": 0, "ID": 6 }, "geometry": { "type": "Point", "coordinates": [ 137.247449885126144, 37.396029855038002 ] } },
{ "type": "Feature", "properties": { "species": "不明", "DBH": 0, "nickname": null, "photo": null, "damage": 0, "ID": 7 }, "geometry": { "type": "Point", "coordinates": [ 137.247445166173776, 37.396029129681864 ] } },
{ "type": "Feature", "properties": { "species": "不明", "DBH": 0, "nickname": null, "photo": null, "damage": 0, "ID": 8 }, "geometry": { "type": "Point", "coordinates": [ 137.247441474014153, 37.396107667044774 ] } },
{ "type": "Feature", "properties": { "species": "ﾓﾁﾉｷ", "DBH": 40, "nickname": null, "photo": null, "damage": 0, "ID": 9 }, "geometry": { "type": "Point", "coordinates": [ 137.247334537235218, 37.396180787767719 ] } },
{ "type": "Feature", "properties": { "species": "ﾀﾌﾞﾉｷ", "DBH": 55, "nickname": null, "photo": "\"I:\\mitsuke\\250901Inverstigation\\photo_bigtree\\9.HEIC\"", "damage": 0, "ID": 10 }, "geometry": { "type": "Point", "coordinates": [ 137.247310342261272, 37.396238483511041 ] } },
{ "type": "Feature", "properties": { "species": "不明", "DBH": 0, "nickname": null, "photo": null, "damage": 0, "ID": 11 }, "geometry": { "type": "Point", "coordinates": [ 137.247372897673472, 37.396195416672697 ] } },
{ "type": "Feature", "properties": { "species": "ﾓﾁﾉｷ", "DBH": 30, "nickname": null, "photo": null, "damage": 0, "ID": 12 }, "geometry": { "type": "Point", "coordinates": [ 137.247378381748575, 37.396195564861692 ] } },
{ "type": "Feature", "properties": { "species": "不明", "DBH": 0, "nickname": null, "photo": null, "damage": 0, "ID": 13 }, "geometry": { "type": "Point", "coordinates": [ 137.247404969150267, 37.396155687175501 ] } },
{ "type": "Feature", "properties": { "species": "不明", "DBH": 0, "nickname": null, "photo": null, "damage": 0, "ID": 14 }, "geometry": { "type": "Point", "coordinates": [ 137.247227274302787, 37.396171563910848 ] } },
{ "type": "Feature", "properties": { "species": "ﾓﾁﾉｷ", "DBH": 60, "nickname": "モチの大将", "photo": "\"I:\\mitsuke\\250901Inverstigation\\photo_bigtree\\14.HEIC\"", "damage": 0, "ID": 15 }, "geometry": { "type": "Point", "coordinates": [ 137.247183708936518, 37.396302394659763 ] } },
{ "type": "Feature", "properties": { "species": "不明", "DBH": 0, "nickname": null, "photo": null, "damage": 0, "ID": 16 }, "geometry": { "type": "Point", "coordinates": [ 137.247240018756088, 37.396294944806023 ] } },
{ "type": "Feature", "properties": { "species": "ﾓﾁﾉｷ", "DBH": 15, "nickname": null, "photo": null, "damage": 0, "ID": 17 }, "geometry": { "type": "Point", "coordinates": [ 137.247108829952367, 37.396319121492589 ] } },
{ "type": "Feature", "properties": { "species": "ﾓﾁﾉｷ", "DBH": 35, "nickname": null, "photo": "\"I:\\mitsuke\\250901Inverstigation\\photo_bigtree\\17.HEIC\"", "damage": 0, "ID": 18 }, "geometry": { "type": "Point", "coordinates": [ 137.24698278585754, 37.396267789907036 ] } },
{ "type": "Feature", "properties": { "species": "ﾓﾁﾉｷ", "DBH": 29, "nickname": "マストの木", "photo": "\"I:\\mitsuke\\250901Inverstigation\\photo_bigtree\\18.HEIC\"", "damage": 0, "ID": 19 }, "geometry": { "type": "Point", "coordinates": [ 137.246941609053692, 37.3963104339797 ] } },
{ "type": "Feature", "properties": { "species": "ﾓﾁﾉｷ", "DBH": 20, "nickname": null, "photo": null, "damage": 0, "ID": 20 }, "geometry": { "type": "Point", "coordinates": [ 137.247013012900538, 37.396301584330317 ] } },
{ "type": "Feature", "properties": { "species": "ﾓﾁﾉｷ", "DBH": 20, "nickname": null, "photo": null, "damage": 0, "ID": 21 }, "geometry": { "type": "Point", "coordinates": [ 137.247026271146609, 37.396212174129907 ] } },
{ "type": "Feature", "properties": { "species": "ﾓﾁﾉｷ", "DBH": 35, "nickname": "横たおしの", "photo": "\"I:\\mitsuke\\250901Inverstigation\\photo_bigtree\\21.HEIC\"", "damage": 0, "ID": 22 }, "geometry": { "type": "Point", "coordinates": [ 137.247093575090474, 37.396169975477953 ] } },
{ "type": "Feature", "properties": { "species": "ﾓﾁﾉｷ", "DBH": 25, "nickname": null, "photo": "\"I:\\mitsuke\\250901Inverstigation\\photo_bigtree\\24.HEIC\"", "damage": 0, "ID": 23 }, "geometry": { "type": "Point", "coordinates": [ 137.247162127989384, 37.396101335418585 ] } },
{ "type": "Feature", "properties": { "species": "ﾓﾁﾉｷ", "DBH": 32, "nickname": null, "photo": "\"I:\\mitsuke\\250901Inverstigation\\photo_bigtree\\24.HEIC\"", "damage": 0, "ID": 24 }, "geometry": { "type": "Point", "coordinates": [ 137.247160038917485, 37.396116996564892 ] } },
{ "type": "Feature", "properties": { "species": "ﾀﾌﾞﾉｷ", "DBH": 93, "nickname": "爺さんタブ", "photo": "\"I:\\mitsuke\\250901Inverstigation\\photo_bigtree\\24.JPG\"", "damage": 0, "ID": 25 }, "geometry": { "type": "Point", "coordinates": [ 137.247272550035348, 37.396150434597175 ] } },
{ "type": "Feature", "properties": { "species": "不明", "DBH": 0, "nickname": null, "photo": null, "damage": 0, "ID": 26 }, "geometry": { "type": "Point", "coordinates": [ 137.247224479771091, 37.396190621821411 ] } },
{ "type": "Feature", "properties": { "species": "ﾓﾁﾉｷ", "DBH": 40, "nickname": null, "photo": "\"I:\\mitsuke\\250901Inverstigation\\photo_bigtree\\27.HEIC\"", "damage": 0, "ID": 27 }, "geometry": { "type": "Point", "coordinates": [ 137.247127888785826, 37.396190035810861 ] } },
{ "type": "Feature", "properties": { "species": "ｽｷﾞ", "DBH": 20, "nickname": "枯れスギ", "photo": "\"I:\\mitsuke\\250901Inverstigation\\photo_bigtree\\28.HEIC\"", "damage": 0, "ID": 28 }, "geometry": { "type": "Point", "coordinates": [ 137.247240521266605, 37.396105717067499 ] } },
{ "type": "Feature", "properties": { "species": "ﾓﾁﾉｷ", "DBH": 20, "nickname": null, "photo": null, "damage": 0, "ID": 29 }, "geometry": { "type": "Point", "coordinates": [ 137.24718613738537, 37.396175766085456 ] } },
{ "type": "Feature", "properties": { "species": "ﾓﾁﾉｷ", "DBH": 30, "nickname": null, "photo": "\"I:\\mitsuke\\250901Inverstigation\\photo_bigtree\\29.HEIC\"", "damage": 0, "ID": 30 }, "geometry": { "type": "Point", "coordinates": [ 137.247208525607164, 37.396121382951307 ] } },
{ "type": "Feature", "properties": { "species": "ﾓﾁﾉｷ", "DBH": 30, "nickname": null, "photo": "\"I:\\mitsuke\\250901Inverstigation\\photo_bigtree\\28.HEIC\"", "damage": 0, "ID": 31 }, "geometry": { "type": "Point", "coordinates": [ 137.247202983895278, 37.396097019287474 ] } },
{ "type": "Feature", "properties": { "species": "枯れ木", "DBH": 50, "nickname": "枯れタブ", "photo": "\"I:\\mitsuke\\250901Inverstigation\\photo_bigtree\\24.HEIC\"", "damage": 0, "ID": 32 }, "geometry": { "type": "Point", "coordinates": [ 137.247170462458314, 37.39610094844128 ] } },
{ "type": "Feature", "properties": { "species": "ﾓﾁﾉｷ", "DBH": 40, "nickname": null, "photo": "\"I:\\mitsuke\\250901Inverstigation\\photo_bigtree\\36.HEIC\"", "damage": 0, "ID": 33 }, "geometry": { "type": "Point", "coordinates": [ 137.247239956184899, 37.396128518806592 ] } },
{ "type": "Feature", "properties": { "species": "ﾊｾﾞﾉｷ", "DBH": 20, "nickname": null, "photo": null, "damage": 0, "ID": 34 }, "geometry": { "type": "Point", "coordinates": [ 137.24707706177324, 37.396193592454559 ] } },
{ "type": "Feature", "properties": { "species": "ﾓﾁﾉｷ", "DBH": 40, "nickname": "再起モチ", "photo": null, "damage": 0, "ID": 35 }, "geometry": { "type": "Point", "coordinates": [ 137.24757744493283, 37.395957114170436 ] } },
{ "type": "Feature", "properties": { "species": "ﾔﾌﾞﾂﾊﾞｷ", "DBH": 9, "nickname": null, "photo": null, "damage": 2, "ID": 36 }, "geometry": { "type": "Point", "coordinates": [ 137.247195800000441, 37.396255840000038 ] } },
{ "type": "Feature", "properties": { "species": "ﾓﾁﾉｷ", "DBH": 9, "nickname": null, "photo": null, "damage": 2, "ID": 37 }, "geometry": { "type": "Point", "coordinates": [ 137.247185900000403, 37.396221580000031 ] } },
{ "type": "Feature", "properties": { "species": "ﾓﾁﾉｷ", "DBH": 9, "nickname": null, "photo": null, "damage": 3, "ID": 38 }, "geometry": { "type": "Point", "coordinates": [ 137.247168800000395, 37.396219980000069 ] } },
{ "type": "Feature", "properties": { "species": "枯れ木", "DBH": 8, "nickname": null, "photo": null, "damage": 0, "ID": 39 }, "geometry": { "type": "Point", "coordinates": [ 137.247160400000439, 37.396217290000024 ] } },
{ "type": "Feature", "properties": { "species": "ﾓﾁﾉｷ", "DBH": 7, "nickname": null, "photo": null, "damage": 2, "ID": 40 }, "geometry": { "type": "Point", "coordinates": [ 137.247169900000358, 37.39620275000005 ] } },
{ "type": "Feature", "properties": { "species": "ﾓﾁﾉｷ", "DBH": 10, "nickname": null, "photo": null, "damage": 4, "ID": 41 }, "geometry": { "type": "Point", "coordinates": [ 137.247153700000354, 37.396198240000039 ] } },
{ "type": "Feature", "properties": { "species": "ﾓﾁﾉｷ", "DBH": 11, "nickname": null, "photo": null, "damage": 3, "ID": 42 }, "geometry": { "type": "Point", "coordinates": [ 137.247156400000449, 37.396196570000029 ] } },
{ "type": "Feature", "properties": { "species": "ﾓﾁﾉｷ", "DBH": 23, "nickname": null, "photo": null, "damage": 3, "ID": 43 }, "geometry": { "type": "Point", "coordinates": [ 137.247166900000366, 37.396197120000068 ] } },
{ "type": "Feature", "properties": { "species": "ﾓﾁﾉｷ", "DBH": 11, "nickname": null, "photo": null, "damage": 3, "ID": 44 }, "geometry": { "type": "Point", "coordinates": [ 137.247167900000335, 37.396197360000031 ] } },
{ "type": "Feature", "properties": { "species": "ﾓﾁﾉｷ", "DBH": 10, "nickname": null, "photo": null, "damage": 3, "ID": 45 }, "geometry": { "type": "Point", "coordinates": [ 137.247169500000382, 37.396202760000058 ] } },
{ "type": "Feature", "properties": { "species": "ﾓﾁﾉｷ", "DBH": 13, "nickname": null, "photo": null, "damage": 3, "ID": 46 }, "geometry": { "type": "Point", "coordinates": [ 137.247171100000401, 37.396194720000047 ] } },
{ "type": "Feature", "properties": { "species": "ﾓﾁﾉｷ", "DBH": 29, "nickname": null, "photo": null, "damage": 3, "ID": 47 }, "geometry": { "type": "Point", "coordinates": [ 137.247180000000412, 37.396193 ] } },
{ "type": "Feature", "properties": { "species": "ﾓﾁﾉｷ", "DBH": 33, "nickname": null, "photo": null, "damage": 4, "ID": 48 }, "geometry": { "type": "Point", "coordinates": [ 137.247202900000389, 37.396188740000071 ] } },
{ "type": "Feature", "properties": { "species": "ﾓﾁﾉｷ", "DBH": 15, "nickname": null, "photo": null, "damage": 3, "ID": 49 }, "geometry": { "type": "Point", "coordinates": [ 137.247190700000374, 37.396212710000036 ] } },
{ "type": "Feature", "properties": { "species": "ﾓﾁﾉｷ", "DBH": 12, "nickname": null, "photo": null, "damage": 3, "ID": 50 }, "geometry": { "type": "Point", "coordinates": [ 137.247184800000326, 37.396235770000025 ] } },
{ "type": "Feature", "properties": { "species": "ﾓﾁﾉｷ", "DBH": 14, "nickname": null, "photo": null, "damage": 3, "ID": 51 }, "geometry": { "type": "Point", "coordinates": [ 137.247199700000351, 37.396244 ] } },
{ "type": "Feature", "properties": { "species": "ﾓﾁﾉｷ", "DBH": 12, "nickname": null, "photo": null, "damage": 3, "ID": 52 }, "geometry": { "type": "Point", "coordinates": [ 137.247198400000457, 37.396252900000036 ] } },
{ "type": "Feature", "properties": { "species": "ｱｶﾒｶﾞｼﾜ", "DBH": 14, "nickname": null, "photo": null, "damage": 3, "ID": 53 }, "geometry": { "type": "Point", "coordinates": [ 137.247204500000407, 37.396224790000083 ] } },
{ "type": "Feature", "properties": { "species": "ﾓﾁﾉｷ", "DBH": 9, "nickname": null, "photo": null, "damage": 0, "ID": 54 }, "geometry": { "type": "Point", "coordinates": [ 137.247218200000361, 37.396243340000069 ] } },
{ "type": "Feature", "properties": { "species": "ﾓﾁﾉｷ", "DBH": 11, "nickname": null, "photo": null, "damage": 3, "ID": 55 }, "geometry": { "type": "Point", "coordinates": [ 137.247198300000377, 37.396252890000028 ] } },
{ "type": "Feature", "properties": { "species": "ﾓﾁﾉｷ", "DBH": 11, "nickname": null, "photo": null, "damage": 3, "ID": 56 }, "geometry": { "type": "Point", "coordinates": [ 137.247229000000402, 37.396252300000079 ] } },
{ "type": "Feature", "properties": { "species": "ﾊｾﾞﾉｷ", "DBH": 9, "nickname": null, "photo": null, "damage": 2, "ID": 57 }, "geometry": { "type": "Point", "coordinates": [ 137.247225500000354, 37.396258150000051 ] } },
{ "type": "Feature", "properties": { "species": "ﾀﾌﾞﾉｷ", "DBH": 8, "nickname": null, "photo": null, "damage": 2, "ID": 58 }, "geometry": { "type": "Point", "coordinates": [ 137.247230800000352, 37.396263150000024 ] } },
{ "type": "Feature", "properties": { "species": "ｼﾛﾀﾞﾓ", "DBH": 18, "nickname": null, "photo": null, "damage": 4, "ID": 59 }, "geometry": { "type": "Point", "coordinates": [ 137.247237100000461, 37.396271240000033 ] } },
{ "type": "Feature", "properties": { "species": "ﾀﾌﾞﾉｷ", "DBH": 9, "nickname": null, "photo": null, "damage": 2, "ID": 60 }, "geometry": { "type": "Point", "coordinates": [ 137.247231500000453, 37.396263310000045 ] } },
{ "type": "Feature", "properties": { "species": "ﾀﾌﾞﾉｷ", "DBH": 24, "nickname": null, "photo": null, "damage": 4, "ID": 61 }, "geometry": { "type": "Point", "coordinates": [ 137.247248100000434, 37.396237540000065 ] } },
{ "type": "Feature", "properties": { "species": "ﾓﾁﾉｷ", "DBH": 12, "nickname": null, "photo": null, "damage": 3, "ID": 62 }, "geometry": { "type": "Point", "coordinates": [ 137.247263300000441, 37.396198760000061 ] } },
{ "type": "Feature", "properties": { "species": "ﾔﾌﾞﾂﾊﾞｷ", "DBH": 16, "nickname": null, "photo": null, "damage": 4, "ID": 63 }, "geometry": { "type": "Point", "coordinates": [ 137.247252700000416, 37.396183750000027 ] } },
{ "type": "Feature", "properties": { "species": "ｱｶﾒｶﾞｼﾜ", "DBH": 17, "nickname": null, "photo": null, "damage": 4, "ID": 64 }, "geometry": { "type": "Point", "coordinates": [ 137.247213000000443, 37.396203640000067 ] } },
{ "type": "Feature", "properties": { "species": "ﾓﾁﾉｷ", "DBH": 10, "nickname": null, "photo": null, "damage": 2, "ID": 65 }, "geometry": { "type": "Point", "coordinates": [ 137.247201800000425, 37.396211640000047 ] } },
{ "type": "Feature", "properties": { "species": "ｱｶﾒｶﾞｼﾜ", "DBH": 17, "nickname": null, "photo": null, "damage": 3, "ID": 66 }, "geometry": { "type": "Point", "coordinates": [ 137.24720560000037, 37.396225880000031 ] } },
{ "type": "Feature", "properties": { "species": "ﾓﾁﾉｷ", "DBH": 26, "nickname": null, "photo": null, "damage": 4, "ID": 67 }, "geometry": { "type": "Point", "coordinates": [ 137.247164800000405, 37.396208510000072 ] } }
]
}
