{
"type": "FeatureCollection",
"name": "zoning",
"crs": { "type": "name", "properties": { "name": "urn:ogc:def:crs:OGC:1.3:CRS84" } },
"features": [
{ "type": "Feature", "properties": { "Id": 0, "zone": "F", "area": 875 }, "geometry": { "type": "MultiPolygon", "coordinates": [ [ [ [ 137.247231864903569, 37.395860608762398 ], [ 137.24721817105609, 37.395873151905178 ], [ 137.247140888945154, 37.395943939831447 ], [ 137.247086871286371, 37.395935661026691 ], [ 137.247059225056233, 37.395984529873701 ], [ 137.246918622488778, 37.396056155808132 ], [ 137.246833406075666, 37.396117857719034 ], [ 137.246716142320622, 37.396202843194125 ], [ 137.246643313931827, 37.396261628838893 ], [ 137.246534782457758, 37.396333232618247 ], [ 137.246481637449762, 37.396394912606524 ], [ 137.24645400853575, 37.396460646192985 ], [ 137.246433678517349, 37.396538007918004 ], [ 137.246484658333486, 37.396493773523545 ], [ 137.246576446442106, 37.396442535586836 ], [ 137.246697350971942, 37.396353477135072 ], [ 137.246819718285906, 37.39626906910636 ], [ 137.246922403593544, 37.396184675211146 ], [ 137.247053489984552, 37.39607409183008 ], [ 137.247164900535438, 37.395969337474249 ], [ 137.247229004657044, 37.395932656409414 ], [ 137.247249394384596, 37.395914614871224 ], [ 137.247231864903569, 37.395860608762398 ] ] ] ] } },
{ "type": "Feature", "properties": { "Id": 0, "zone": "E", "area": 1108 }, "geometry": { "type": "MultiPolygon", "coordinates": [ [ [ [ 137.247554563208752, 37.396357930011241 ], [ 137.247502806412029, 37.396279439718569 ], [ 137.247461952705862, 37.396247482674724 ], [ 137.247362870369898, 37.396293492620593 ], [ 137.247223685683224, 37.396327899159573 ], [ 137.247103457373839, 37.396366362963263 ], [ 137.246929312869042, 37.396427544238527 ], [ 137.246811267878968, 37.396464261710094 ], [ 137.246656773317511, 37.396496932503126 ], [ 137.246515400695586, 37.396530758470469 ], [ 137.246462876067454, 37.396560628047183 ], [ 137.246460042365101, 37.396567433158552 ], [ 137.246559192233292, 37.396584231105933 ], [ 137.246653945808077, 37.396579514663216 ], [ 137.246739228469579, 37.396579456943421 ], [ 137.246814297698393, 37.396571264411449 ], [ 137.246887903509474, 37.396557838891368 ], [ 137.246953506157837, 37.39655837591495 ], [ 137.24703368889854, 37.396560647637919 ], [ 137.247086131998998, 37.396524555998759 ], [ 137.247137853599384, 37.396495443404817 ], [ 137.247185925007983, 37.396461099340485 ], [ 137.247222340034398, 37.396432578679367 ], [ 137.247268221520955, 37.396395328332396 ], [ 137.247310488322483, 37.39638599474381 ], [ 137.247368073439873, 37.396387118553235 ], [ 137.247445332881483, 37.396382413414521 ], [ 137.247506561922052, 37.396382953119009 ], [ 137.247554563208752, 37.396357930011241 ] ] ] ] } },
{ "type": "Feature", "properties": { "Id": 0, "zone": "D", "area": 807 }, "geometry": { "type": "MultiPolygon", "coordinates": [ [ [ [ 137.247183928425756, 37.396340803813523 ], [ 137.247179850252905, 37.396317093401649 ], [ 137.247124460528624, 37.396324109313198 ], [ 137.247060321860033, 37.396328805377685 ], [ 137.246976498198222, 37.396329444456249 ], [ 137.246912353426183, 37.396329488004156 ], [ 137.246887559289377, 37.396318455394116 ], [ 137.246888274147722, 37.39630566092309 ], [ 137.246934141297885, 37.396255035069451 ], [ 137.246975651301057, 37.396219531912919 ], [ 137.247012781221116, 37.396177635625826 ], [ 137.247007646725052, 37.396147979918304 ], [ 137.24696542006032, 37.396148386932218 ], [ 137.246922403593544, 37.396184675211146 ], [ 137.246819718285906, 37.39626906910636 ], [ 137.246697350971942, 37.396353477135072 ], [ 137.246576446442106, 37.396442535586836 ], [ 137.246484658333486, 37.396493773523545 ], [ 137.246433678517349, 37.396538007918004 ], [ 137.246467950937586, 37.396548450553418 ], [ 137.246462786960137, 37.396560841927602 ], [ 137.246515311588496, 37.396530972350931 ], [ 137.246656684210848, 37.396497146383695 ], [ 137.246811178772731, 37.396464475590776 ], [ 137.246929223763203, 37.396427758119287 ], [ 137.247103368268569, 37.396366576844166 ], [ 137.247183928425756, 37.396340803813523 ] ] ] ] } },
{ "type": "Feature", "properties": { "Id": 0, "zone": "A", "area": 1263 }, "geometry": { "type": "MultiPolygon", "coordinates": [ [ [ [ 137.24696542006032, 37.396148386932218 ], [ 137.247007646725052, 37.396147979918304 ], [ 137.247012781221116, 37.396177635625826 ], [ 137.246975651301057, 37.396219531912919 ], [ 137.246934141297885, 37.396255035069451 ], [ 137.246888274147722, 37.39630566092309 ], [ 137.246887559289377, 37.396318455394116 ], [ 137.246912353426183, 37.396329488004156 ], [ 137.246976498198222, 37.396329444456249 ], [ 137.247060321860033, 37.396328805377685 ], [ 137.247124460528624, 37.396324109313198 ], [ 137.247179850252905, 37.396317093401649 ], [ 137.247183928425756, 37.396340803813523 ], [ 137.247223596578351, 37.396328113040568 ], [ 137.247362781265451, 37.396293706501694 ], [ 137.24746186646982, 37.396247698501689 ], [ 137.247442168628481, 37.396234334808085 ], [ 137.247437013246753, 37.396184324819075 ], [ 137.247392504918821, 37.396143065365763 ], [ 137.24734511146255, 37.396129722507659 ], [ 137.247337059871313, 37.396098324251987 ], [ 137.247313644728308, 37.396013433857533 ], [ 137.247273517869587, 37.395979731698702 ], [ 137.247249441702166, 37.395958812575707 ], [ 137.247249394381413, 37.395914611867546 ], [ 137.247229004657044, 37.395932656409414 ], [ 137.247164900535438, 37.395969337474249 ], [ 137.247053489984552, 37.39607409183008 ], [ 137.24696542006032, 37.396148386932218 ] ] ] ] } },
{ "type": "Feature", "properties": { "Id": 0, "zone": "C", "area": 569 }, "geometry": { "type": "MultiPolygon", "coordinates": [ [ [ [ 137.247799359212138, 37.395785561804104 ], [ 137.2477515184803, 37.395829365250492 ], [ 137.247659744436277, 37.395892235646784 ], [ 137.247680914995129, 37.395921880341533 ], [ 137.247640910520147, 37.396000997433177 ], [ 137.247659888989261, 37.396026573309769 ], [ 137.247716770370971, 37.396050958972914 ], [ 137.247837042389165, 37.396053784361776 ], [ 137.247911989259052, 37.396060955959129 ], [ 137.247914305700476, 37.396052568124702 ], [ 137.247914237277087, 37.395989179420027 ], [ 137.247912008502254, 37.395950217222904 ], [ 137.247916358080801, 37.39592811540313 ], [ 137.247983335065811, 37.395851886549757 ], [ 137.247906821427136, 37.395871711780835 ], [ 137.247894379839806, 37.395825196472181 ], [ 137.247820732915955, 37.395799658918655 ], [ 137.247799359212138, 37.395785561804104 ] ] ] ] } },
{ "type": "Feature", "properties": { "Id": 0, "zone": "B1", "area": 1365 }, "geometry": { "type": "MultiPolygon", "coordinates": [ [ [ [ 137.247678006488513, 37.396034337758209 ], [ 137.247659888989261, 37.396026573309769 ], [ 137.247640910520147, 37.396000997433177 ], [ 137.247680914995129, 37.395921880341533 ], [ 137.247659744436277, 37.395892235646784 ], [ 137.2477515184803, 37.395829365250492 ], [ 137.247799359212138, 37.395785561804104 ], [ 137.247774049843372, 37.39576886889359 ], [ 137.247645747138705, 37.395754418123211 ], [ 137.247546611245809, 37.395749833586962 ], [ 137.247452590797081, 37.39575745798529 ], [ 137.247297380416029, 37.395800598489558 ], [ 137.247231864903569, 37.395860608762398 ], [ 137.247249394381413, 37.395914611867546 ], [ 137.247249441702166, 37.395958812575707 ], [ 137.247273517869587, 37.395979731698702 ], [ 137.247313644728308, 37.396013433857533 ], [ 137.247337059871313, 37.396098324251987 ], [ 137.247341750203731, 37.396116614833169 ], [ 137.247382324436785, 37.396108634522896 ], [ 137.247433179671987, 37.396099904068443 ], [ 137.247530072998018, 37.396106601593239 ], [ 137.247619683901149, 37.396098809639952 ], [ 137.247678006488513, 37.396034337758209 ] ] ] ] } },
{ "type": "Feature", "properties": { "Id": 0, "zone": "B2", "area": 937 }, "geometry": { "type": "MultiPolygon", "coordinates": [ [ [ [ 137.247678006488513, 37.396034337758209 ], [ 137.247619683901149, 37.396098809639952 ], [ 137.247530072998018, 37.396106601593239 ], [ 137.247433179671987, 37.396099904068443 ], [ 137.247382324436785, 37.396108634522896 ], [ 137.247341750203731, 37.396116614833169 ], [ 137.24734511146255, 37.396129722507659 ], [ 137.247392504918821, 37.396143065365763 ], [ 137.247437013246753, 37.396184324819075 ], [ 137.247442168628481, 37.396234334808085 ], [ 137.24746186646982, 37.396247698501689 ], [ 137.247502717308009, 37.39627965359977 ], [ 137.247554474104817, 37.396358143892478 ], [ 137.247573495005412, 37.396348228272366 ], [ 137.247658742359761, 37.396315603217211 ], [ 137.247754186844503, 37.396275992530363 ], [ 137.247843745396182, 37.396185791116963 ], [ 137.247896153956304, 37.396118295539118 ], [ 137.247911989259052, 37.396060955959129 ], [ 137.247837042389165, 37.396053784361776 ], [ 137.247716770370971, 37.396050958972914 ], [ 137.247678006488513, 37.396034337758209 ] ] ] ] } }
]
}
